id	name	lat	lon	y	x	country	adm1	adm2	district
53f4f088-8cca-4523-bfb1-c186deede727	Aleksandrów Kujawski	52°52'30''	18°41'41''	556645.24	479453.79	POL	kujawsko-pomorskie	aleksandrowski	
1695e02d-c80f-46cc-a167-57bfef321b86	Aleksandrów Łódzki	51°49'13''	19°18'18''	439370.27	521015.83	POL	łódzkie	zgierski	
52e8eed9-fa48-4c19-9dcc-c4928d24ce14	Alwernia	50°04'07''	19°32'31''	244735.31	538776.4	POL	małopolskie	chrzanowski	
8a445290-c4b4-4e6c-934d-7de07c50c9fd	Andrychów	49°51'10''	19°20'29''	220671.55	524524.25	POL	małopolskie	wadowicki	
5116ef59-1754-4ecc-8992-8e8a2a1346ae	Annopol	50°53'08''	21°51'25''	339281	700892.86	POL	lubelskie	kraśnicki	
a2cbba8d-b717-458d-b38b-5906f2b02c44	Augustów	53°50'24''	22°59'54''	671342.42	762949.13	POL	podlaskie	augustowski	
b559cf33-2a49-488c-b502-7d51501a258a	Babimost	52°09'53''	15°49'49''	482372.43	283296.99	POL	lubuskie	zielonogórski	
c72d979f-daf1-4f42-bec9-d663c87e2ec0	Baborów	50°09'24''	17°59'09''	254865.74	427573	POL	opolskie	głubczycki	
8bc32bec-e0a4-435e-b099-b109221e99b3	Baranów Sandomierski	50°29'54''	21°32'32''	295447.37	680235.75	POL	podkarpackie	tarnobrzeski	
fa96d26a-bace-496a-b10e-efd27c06163d	Barcin	52°51'27''	17°56'31''	555171.89	428778.28	POL	kujawsko-pomorskie	żniński	
8f134171-b636-4f8e-a48d-8f7fc731eb4b	Barczewo	53°49'42''	20°41'25''	663958.05	611216.52	POL	warmińsko-mazurskie	olsztyński	
cbca97ea-de3f-43a6-9449-8b6b6fd784d2	Bardo	50°30'23''	16°44'26''	295681.05	339825.28	POL	dolnośląskie	ząbkowicki	
28fc718b-c9ec-49f4-84f1-90d5bbf255a0	Barlinek	52°59'50''	15°13'10''	576888.46	246396.7	POL	zachodniopomorskie	myśliborski	
58347a3e-0f62-4e29-ac06-369c76b33912	Bartoszyce	54°15'04''	20°48'34''	711153.85	617857.56	POL	warmińsko-mazurskie	bartoszycki	
be6c2334-efd1-4035-9853-5267d47700a6	Barwice	53°44'41''	16°21'19''	656590.93	325646.16	POL	zachodniopomorskie	szczecinecki	
a3617852-9aaf-4daf-9b4b-a5436f003c7c	Bełchatów	51°21'45''	19°21'54''	388490.2	525410.31	POL	łódzkie	bełchatowski	
55778000-898e-479d-9bb1-c29963974151	Bełżyce	51°10'30''	22°16'55''	372701.79	729322.09	POL	lubelskie	lubelski	
4a12cc87-4ed3-4e76-8eed-a1f99bb6764f	Będzin	50°19'27''	19°08'09''	273023.81	509667.18	POL	śląskie	będziński	
dd0d700a-435d-4eb0-a681-35033fe853cd	Biała	50°23'07''	17°39'35''	280660.9	404749.99	POL	opolskie	prudnicki	
fff2ba72-7eea-4df2-aeb8-1ba5459dafbd	Biała Piska	53°36'39''	22°03'43''	642795.27	702482.92	POL	warmińsko-mazurskie	piski	
cb2da033-23a4-44ba-9522-c2a813db54c3	Biała Podlaska	52°02'02''	23°07'23''	471098.48	782697.16	POL	lubelskie	m. Biała Podlaska
342133b3-92bf-4782-a7e4-b786d8d7f1d2	Biała Rawska	51°48'30''	20°28'27''	439025.61	601600.85	POL	łódzkie	rawski	
d147b132-22ed-464e-b3ef-5dd4739617dc	Białobrzegi	51°38'54''	20°56'59''	422008.37	634849.33	POL	mazowieckie	białobrzeski	
418c27d5-a52f-40ef-a5c3-625b9bb855ed	Białogard	54°00'30''	15°59'09''	686856.62	302549.64	POL	zachodniopomorskie	białogardzki	
b424e8b4-8b3e-4b24-885b-466436e11509	Biały Bór	53°53'46''	16°50'08''	672354.57	357819.28	POL	zachodniopomorskie	szczecinecki	
c69ec723-0a2a-4ea3-929a-c5f2d52a169d	Białystok	53°07'57''	23°09'47''	593340.43	778375.95	POL	podlaskie	m. Białystok	
252a79a0-f277-47be-8e87-df76df0243b6	Biecz	49°43'52''	21°15'14''	209505.09	662366.16	POL	małopolskie	gorlicki	
c895a01b-03b9-43c4-ade6-daa0d7faef10	Bielawa	50°41'04''	16°36'42''	315779.24	331347.69	POL	dolnośląskie	dzierżoniowski	
7f90fc3e-1c75-44da-8e3a-f280ae6a94e4	Bielsk Podlaski	52°46'16''	23°11'25''	553286.15	782544.71	POL	podlaskie	bielski	
99994689-10c7-489b-a49a-d75914f5ba59	Bielsko-Biała	49°49'19''	19°02'40''	217178.61	503195.99	POL	śląskie	m. Bielsko-Biała	
297354fc-8090-40b8-85a4-2e983d784d00	Bieruń	50°05'30''	19°05'28''	247166.54	506516.66	POL	śląskie	bieruńsko-lędziński	
57163ba8-2d8c-4b75-8875-ef597c326d38	Bierutów	51°07'31''	17°32'39''	363068.13	398147.4	POL	dolnośląskie	oleśnicki	
7682aea3-2f87-49f5-942a-1065484f6c0a	Bieżuń	52°57'35''	19°53'19''	566389.28	559663.25	POL	mazowieckie	żuromiński	
ee8db1bc-1bb5-4684-9428-7813bf2f90d7	Biłgoraj	50°32'18''	22°43'13''	303418.04	763526.96	POL	lubelskie	biłgorajski	
ccdd9e3f-9ef6-4b30-9de9-2e3c17a2b6aa	Biskupiec	53°51'52''	20°57'19''	668418.49	628541.01	POL	warmińsko-mazurskie	olsztyński	
7dc8982b-b989-4ee5-9381-3e72f12e8942	Bisztynek	54°05'10''	20°54'05''	692964.74	624336.43	POL	warmińsko-mazurskie	bartoszycki	
98f219b2-1a65-492e-812a-f2b23d290be6	Blachownia	50°47'03''	18°57'45''	324136.25	497360.35	POL	śląskie	częstochowski	
56717019-e2b9-4946-816d-ae9074f680d0	Błaszki	51°39'06''	18°26'16''	420729.9	461113.7	POL	łódzkie	sieradzki	
e645986f-ac51-4eac-a5ec-adcebb407546	Błażowa	49°53'07''	22°06'05''	228828.78	722710.68	POL	podkarpackie	rzeszowski	
a3867ad6-1fdb-4d3a-867a-747cf404930e	Błonie	52°11'41''	20°37'01''	482192.26	610494.4	POL	mazowieckie	warszawski zachodni	
6fc0d01d-dc93-4f5c-b35c-642e492abb89	Bobolice	53°57'20''	16°35'22''	679472.84	341884.68	POL	zachodniopomorskie	koszaliński	
fadec876-10dd-4112-a706-7584bcdc972e	Bobowa	49°42'19''	20°56'60''	206042.25	640553.36	POL	małopolskie	gorlicki	
f2d97dff-f6a7-41a2-8405-d6fe2760c09a	Bochnia	49°58'10''	20°25'57''	234541.73	602702.88	POL	małopolskie	bocheński	
f0d02bec-6f4a-4584-b459-54c5ee8443af	Bodzentyn	50°56'28''	20°57'25''	343398.55	637446.25	POL	świętokrzyskie	kielecki	
9bb64a28-d54d-4e01-9d74-23b1f1070fd6	Bogatynia	50°54'17''	14°57'26''	345320.68	215872.39	POL	dolnośląskie	zgorzelecki	
87c4b31c-75d5-4181-adaa-5a1f392bf3d5	Boguchwała	49°58'51''	21°56'20''	238976.62	710626.15	POL	podkarpackie	rzeszowski	
9c93808f-ac17-486b-9478-dfec019c92b1	Boguszów-Gorce	50°45'21''	16°12'18''	324720.69	302921.9	POL	dolnośląskie	wałbrzyski	
e2ecc1f7-ad8e-49a7-b71d-d6dbbbbdf32c	Bojanowo	51°42'27''	16°44'56''	429176.03	344511.35	POL	wielkopolskie	rawicki	
3d9ba1af-fab1-4b1a-b6f6-f89a326cd925	Bolesławiec	51°15'47''	15°33'53''	382975.94	260421.98	POL	dolnośląskie	bolesławiecki	
6dddb5cc-f52d-4ef7-b5a4-8985296373c2	Bolków	50°55'20''	16°06'02''	343478.32	296293.41	POL	dolnośląskie	jaworski	
4c255645-6c9b-4582-9a8d-e57fc509f108	Borek Wielkopolski	51°54'59''	17°14'32''	451480.97	379144.74	POL	wielkopolskie	gostyński	
af4f6b53-dada-4717-a8ec-aff30a2494d4	Borne Sulinowo	53°34'53''	16°32'18''	637998.73	337088.2	POL	zachodniopomorskie	szczecinecki	
e64fd8e9-8fb7-43e6-832b-4448f7d75260	Braniewo	54°22'56''	19°49'18''	724556.89	553351.87	POL	warmińsko-mazurskie	braniewski	
df9e165f-d056-46fa-82b1-f132d5afa997	Brańsk	52°44'36''	22°50'30''	548892.85	759217.36	POL	podlaskie	bielski	
7c5fe5ef-3974-44af-af5f-47f712eabad6	Brodnica	53°15'23''	19°24'10''	599100.29	526859.13	POL	kujawsko-pomorskie	brodnicki	
49c6f52e-9d37-4825-a43e-4434cac2c4f4	Brusy	53°53'12''	17°43'04''	669881.9	415750.22	POL	pomorskie	chojnicki	
de1369ec-3325-4cdb-99c8-a23a2b6fb43d	Brwinów	52°08'34''	20°43'02''	476574.89	617473.23	POL	mazowieckie	pruszkowski	
eb499479-acb6-4479-a830-d824b89b4d09	Brzeg	50°51'42''	17°28'12''	333863.2	392350.63	POL	opolskie	brzeski	
b8016d6b-d9b8-4a34-861d-dcba0dd4e913	Brzeg Dolny	51°15'37''	16°43'11''	379539.4	340944.06	POL	dolnośląskie	wołowski	
619a4062-af30-4c4d-b5eb-897399facabc	Brzesko	49°58'06''	20°36'28''	234687.09	615263.2	POL	małopolskie	brzeski	
2bf29834-202c-4635-ba3e-bdcc57982065	Brzeszcze	49°58'59''	19°08'39''	235083.48	510325.49	POL	małopolskie	oświęcimski	
17470435-a02b-4b14-821a-9cf9885ffb92	Brześć Kujawski	52°36'23''	18°54'02''	526742.27	493276.89	POL	kujawsko-pomorskie	włocławski	
4af467fa-dbb2-4e79-8e8e-6709807b5611	Brzeziny	51°47'59''	19°45'13''	437299.88	551942.6	POL	łódzkie	brzeziński	
6cdbd3c1-a40e-4b9a-906e-b24bb79180ba	Brzostek	49°52'47''	21°24'39''	226375.3	673151.43	POL	podkarpackie	dębicki	
6f0afa16-0b93-4fc9-9238-1bfe28d31f6e	Brzozów	49°41'39''	22°01'10''	207366.73	717676.44	POL	podkarpackie	brzozowski	
f2f485d1-34aa-4ee9-849c-94d56988e6dd	Buk	52°21'19''	16°31'11''	501721.29	331142.51	POL	wielkopolskie	poznański	
829d0b16-fdc6-4576-be6c-103ec68cb97b	Bukowno	50°16'04''	19°27'46''	266825.79	532966.76	POL	małopolskie	olkuski	
6f27519f-640a-4993-9931-f9cbadc79cea	Busko-Zdrój	50°28'09''	20°43'06''	290537.18	621908.58	POL	świętokrzyskie	buski	
a6d4632a-b8c1-4e7e-9dde-fc58673e7dca	Bychawa	51°00'52''	22°32'05''	355681.04	747845.91	POL	lubelskie	lubelski	
8d3a0c96-5870-45c6-9c4b-bf27a1a87aaa	Byczyna	51°06'51''	18°12'51''	361103.8	445014.22	POL	opolskie	kluczborski	
f25872ab-ae3b-4039-95c7-ffb77ce774b2	Bydgoszcz	53°07'31''	18°00'05''	584918.85	433201.17	POL	kujawsko-pomorskie	m. Bydgoszcz	
252b39cb-24aa-4bfd-a671-f2b98feaa704	Bystrzyca Kłodzka	50°17'51''	16°39'01''	272681.27	332703.78	POL	dolnośląskie	kłodzki	
a10d44d9-e775-44e3-898b-63426f06796e	Bytom	50°20'52''	18°55'03''	275628.55	494131.72	POL	śląskie	m. Bytom	
7bca99a4-0376-4ca5-86f0-cab847d8297a	Bytom Odrzański	51°43'50''	15°49'35''	434131.66	280916.25	POL	lubuskie	nowosolski	
f23d1576-9d7e-4186-8c39-49015ade010e	Bytów	54°10'08''	17°29'22''	701564.85	401418.18	POL	pomorskie	bytowski	
59e9b1aa-520d-4ded-b468-d1761923bfa9	Cedynia	52°52'42''	14°12'12''	567748.75	177386.42	POL	zachodniopomorskie	gryfiński	
35d3070d-601e-4983-83fa-4853ef282b2f	Chełm	51°08'01''	23°28'18''	372505.88	812715.59	POL	lubelskie	m. Chełm	
fc48c738-b94f-4e6f-9081-64f0454a6228	Chełmek	50°06'02''	19°15'30''	248177.36	518469.79	POL	małopolskie	oświęcimski	
25429dbe-a6c6-4e0d-be82-529e269a8719	Chełmno	53°21'02''	18°25'49''	609656.11	462083.63	POL	kujawsko-pomorskie	chełmiński	
3de02dda-c5a7-4ded-86c8-cf25dc370a74	Chełmża	53°11'12''	18°36'35''	591328.43	473923.93	POL	kujawsko-pomorskie	toruński	
8fcadf57-6d96-4168-bac2-529f21182e9b	Chęciny	50°48'02''	20°27'44''	326969.2	603016.3	POL	świętokrzyskie	kielecki	
82ed32ae-ad1f-463c-ac89-07a386abf23a	Chmielnik	50°36'52''	20°45'06''	306719.22	623897.03	POL	świętokrzyskie	kielecki	
4fa22e9d-e925-44b6-85b9-621782442807	Chocianów	51°25'11''	15°54'09''	399355.92	284707.75	POL	dolnośląskie	polkowicki	
e9e46500-18c8-4db7-8e55-4b3ffd310d92	Chociwel	53°28'09''	15°20'07''	628948.5	256848.66	POL	zachodniopomorskie	stargardzki	
16ad5eb1-85c0-4b98-bcd5-12769dc424af	Chocz	51°58'37''	17°52'13''	457353.81	422432.99	POL	wielkopolskie	pleszewski	
9bfc208b-eba5-46e1-8a17-63c69319fda7	Chodecz	52°24'17''	19°01'44''	504309.49	501963.97	POL	kujawsko-pomorskie	włocławski	
5d8d8036-f733-4691-bcf8-e2785e9e57aa	Chodzież	52°59'32''	16°54'55''	571684.35	360127.79	POL	wielkopolskie	chodzieski	
dc949cc3-7699-4820-b7ce-24f43bc8e596	Chojna	52°57'48''	14°25'58''	576201.69	193406.62	POL	zachodniopomorskie	gryfiński	
fd6a9abd-3155-4d30-9ac5-9d325e5bd123	Chojnice	53°41'43''	17°33'47''	648792.2	405153.83	POL	pomorskie	chojnicki	
ed30503d-d5db-455b-9e7b-ee58e59b88d4	Chojnów	51°16'24''	15°56'11''	382980.42	286384.75	POL	dolnośląskie	legnicki	
cbe50c5e-9909-40a2-85de-b2daaea1b5a7	Choroszcz	53°08'38''	22°59'20''	593942.5	766664.52	POL	podlaskie	białostocki	
d556ca82-1163-4259-aa8a-6020e2cdf77b	Chorzele	53°15'31''	20°53'50''	600947.3	626516.66	POL	mazowieckie	przasnyski	
3394ab1e-4fc4-4edd-9d2d-ce00d6d86cfd	Chorzów	50°17'55''	18°57'17''	270161.27	496776.19	POL	śląskie	m. Chorzów	
3a8f8745-4906-4f8e-98f6-2675739208c7	Choszczno	53°10'03''	15°25'11''	595110.16	260763.28	POL	zachodniopomorskie	choszczeński	
5d1ae67b-acce-4ee3-b354-667a9705894c	Chrzanów	50°08'30''	19°24'41''	252790.56	529384.11	POL	małopolskie	chrzanowski	
8de66b42-fa32-450a-adcf-4031e95cfc7e	Ciechanowiec	52°40'45''	22°29'59''	540582.11	736492.11	POL	podlaskie	wysokomazowiecki	
aa4cd340-8ddd-4932-ba5c-e98eb5540ae5	Ciechanów	52°52'34''	20°36'29''	557941.03	608189.19	POL	mazowieckie	ciechanowski	
bb2c1325-8695-4049-a87d-f76ef830b1e2	Ciechocinek	52°52'43''	18°47'14''	557044.53	485677.67	POL	kujawsko-pomorskie	aleksandrowski	
63874ae7-2491-4f9f-9f65-b1fc57d92aec	Cieszanów	50°14'42''	23°07'52''	272368	794422.49	POL	podkarpackie	lubaczowski	
5b7fdccc-8c36-4ecd-a8a8-78f4e059e479	Cieszyn	49°44'55''	18°38'02''	209091.17	473633.27	POL	śląskie	cieszyński	
85f41c93-f583-4264-b4fa-bc86908e767e	Ciężkowice	49°47'11''	20°58'27''	215095.12	642061.59	POL	małopolskie	tarnowski	
72bdcb38-cc7b-4f39-9202-5c40f9706665	Cybinka	52°11'38''	14°47'44''	489201.28	212761.56	POL	lubuskie	słubicki	
b242495b-b545-41e2-b783-7330e8f62270	Czaplinek	53°33'32''	16°13'59''	636211.65	316797.67	POL	zachodniopomorskie	drawski	
cfe0e8e5-9036-438f-b3c0-da883172e822	Czarna Białostocka	53°18'21''	23°16'52''	613068.33	785110.86	POL	podlaskie	białostocki	
2265ab12-47f6-41b9-86af-b41664ddcaaf	Czarna Woda	53°50'41''	18°05'60''	664822.84	440798.91	POL	pomorskie	starogardzki	
0446a899-4d6f-45e0-94c1-da812a6ecf5c	Czarne	53°41'01''	16°56'32''	648501.95	364142.37	POL	pomorskie	człuchowski	
915fb46d-14be-4dc5-91ff-0424501d02ff	Czarnków	52°54'17''	16°33'52''	562691.18	336247.33	POL	wielkopolskie	czarnkowsko-trzcianecki	
c580b399-a8ad-4794-952d-bf6fca103d5c	Czchów	49°50'02''	20°40'25''	219836.21	620311.66	POL	małopolskie	brzeski	
6b2f651d-2cd7-463a-9459-fa873ddeb306	Czechowice-Dziedzice	49°54'40''	19°00'26''	227096.2	500510.74	POL	śląskie	bielski	
e9aec2e0-5699-4600-a4de-ce5298954197	Czeladź	50°18'55''	19°04'18''	272006.06	505098.49	POL	śląskie	będziński	
76d150d9-ae28-4498-9897-ad1dcfa807db	Czempiń	52°08'36''	16°45'26''	477609.69	346585.53	POL	wielkopolskie	kościański	
6a56d3de-cd66-4b44-9ff9-b4a252ce430e	Czerniejewo	52°25'36''	17°29'22''	507825.9	397313.25	POL	wielkopolskie	gnieźnieński	
2a9526d6-acfc-41d7-a789-4430233ff159	Czersk	53°47'41''	17°58'33''	659380.23	432557.82	POL	pomorskie	chojnicki	
548ca912-6178-4b25-ad9f-b7ef8c1c768d	Czerwieńsk	52°00'47''	15°25'22''	466799.73	254611.8	POL	lubuskie	zielonogórski	
5b41a057-3615-46e7-8fc3-1287399ec5aa	Czerwińsk nad Wisłą	52°23'38''	20°18'45''	503923.63	589272.98	POL	mazowieckie	płoński	
a1970162-1925-4dce-9dfe-c69f1379cf5c	Czerwionka-Leszczyny	50°09'33''	18°39'48''	254714.49	475959.08	POL	śląskie	rybnicki	
d1022b52-3617-47f3-a27f-af8d620374d3	Częstochowa	50°48'30''	19°07'38''	326829.66	508961.17	POL	śląskie	m. Częstochowa	
8242b0dc-187e-4465-abcc-b620a45ddaa2	Człopa	53°05'11''	16°07'18''	583974.39	307299.11	POL	zachodniopomorskie	wałecki	
7dce9375-2b92-4c42-9f36-a7dc34178faf	Człuchów	53°39'57''	17°21'28''	645810.95	391529.79	POL	pomorskie	człuchowski	
51bcf447-6fc2-407b-9e2e-422f8cc8e9d5	Czyżew	52°47'55''	22°18'60''	553277.56	723507.53	POL	podlaskie	wysokomazowiecki	
e4b5456f-785a-4140-adee-9acbbe87eeab	Ćmielów	50°53'25''	21°30'36''	338931.58	676476.5	POL	świętokrzyskie	ostrowiecki	
27aa0eb8-33c8-4c93-a687-a2c2dde08146	Daleszyce	50°48'05''	20°48'24''	327605.21	627271.1	POL	świętokrzyskie	kielecki	
4d5e12e6-060f-423d-a53c-475fe47fc115	Darłowo	54°25'15''	16°24'37''	731637.47	332031.41	POL	zachodniopomorskie	sławieński	
7abd4701-9efe-46fb-90e7-8757e575791f	Dąbie	52°05'18''	18°49'20''	469159.77	487817.85	POL	wielkopolskie	kolski	
5d1f7f53-b92a-456c-b555-d1652100cce6	Dąbrowa Białostocka	53°39'17''	23°20'48''	652101.79	787106.34	POL	podlaskie	sokólski	
36755734-c882-4b30-a664-2f1ff3dfbbf2	Dąbrowa Górnicza	50°19'17''	19°11'14''	272708.96	513324.01	POL	śląskie	m. Dąbrowa Górnicza	
81fe5448-3065-411f-a458-122dfd6ec29c	Dąbrowa Tarnowska	50°10'28''	20°59'11''	258251.48	641798.49	POL	małopolskie	dąbrowski	
0dc3455b-c982-43d8-b1ec-c1d0aaf1db2d	Debrzno	53°32'12''	17°14'07''	631640.92	383083.08	POL	pomorskie	człuchowski	
52c89d7d-210a-45fc-8d27-5234eb907794	Dębica	50°03'10''	21°24'30''	245612.57	672348.41	POL	podkarpackie	dębicki	
0fe76d1d-f4e5-427e-8d33-c34c0971a67b	Dęblin	51°33'57''	21°50'44''	414877.81	697160.04	POL	lubelskie	rycki	
8dba950e-8bb2-4100-b2a3-eb9c219eb7c1	Dębno	52°44'08''	14°42'08''	549765.85	209974.76	POL	zachodniopomorskie	myśliborski	
018439ca-9f8e-4566-b245-91653fb931c5	Dobczyce	49°52'40''	20°05'56''	223958.94	578927.76	POL	małopolskie	myślenicki	
be74c758-128c-4835-be5d-708f30fc83b7	Dobiegniew	52°58'11''	15°45'19''	572054.64	282181.35	POL	lubuskie	strzelecko-drezdenecki	
0b3b8d0e-3d24-4c05-ab78-cf95d87f91c5	Dobra	51°54'56''	18°36'59''	449994.89	473619.6	POL	wielkopolskie	turecki	
771f4dcb-4a7e-4fce-a201-ce76f3826455	Dobra	53°35'10''	15°18'26''	642039.95	255673.56	POL	zachodniopomorskie	łobeski	
838896ed-c326-4387-b70a-bad2928e7fff	Dobre Miasto	53°59'10''	20°23'23''	681088.54	591103.12	POL	warmińsko-mazurskie	olsztyński	
2f6f5b2a-8952-4639-bab2-97f69f538242	Dobrodzień	50°43'43''	18°26'36''	318095.44	460719.09	POL	opolskie	oleski	
64336732-c44c-4d41-b08c-bae985ea448d	Dobrzany	53°21'30''	15°25'44''	616298.37	262447.96	POL	zachodniopomorskie	stargardzki	
a74137e0-99ca-42f0-9d5c-67e446eaa517	Dobrzyca	51°51'48''	17°36'04''	445044.44	403704.68	POL	wielkopolskie	pleszewski	
865d37bd-e4f5-4dd8-ad93-9b34f601d73a	Dobrzyń nad Wisłą	52°38'18''	19°19'22''	530328.79	521829.24	POL	kujawsko-pomorskie	lipnowski	
e45c5c35-4c1f-4ca0-aa25-62e004800f32	Dolsk	51°59'14''	17°03'50''	459645.25	367085.26	POL	wielkopolskie	śremski	
e60027fb-a3ad-4d2d-bfce-13db9b888023	Drawno	53°13'07''	15°45'22''	599715.37	283504.74	POL	zachodniopomorskie	choszczeński	
16fcb2ff-3a06-4b39-b88b-ad1ea7d0fa62	Drawsko Pomorskie	53°31'51''	15°48'34''	634283.01	288618.87	POL	zachodniopomorskie	drawski	
b3dcd9be-18c9-47c0-b537-7e080beee7ab	Drezdenko	52°50'19''	15°49'53''	557256.76	286647.39	POL	lubuskie	strzelecko-drezdenecki	
8565bc41-bf2e-4dd4-a819-8edf4cd40fc8	Drobin	52°44'16''	19°59'25''	541807.21	566838.9	POL	mazowieckie	płocki	
2497aec6-6f32-4b0d-b11c-8e4f9f426093	Drohiczyn	52°23'49''	22°39'32''	509732.22	748840.03	POL	podlaskie	siemiatycki	
3f71246a-7766-40fe-b809-8a86d156d428	Drzewica	51°27'02''	20°28'38''	399251.29	602617.75	POL	łódzkie	opoczyński	
217caaed-d08c-48f1-bf78-dcabb6eb2558	Dukla	49°33'18''	21°41'04''	190973.93	694078.28	POL	podkarpackie	krośnieński	
cd689acf-2425-4b01-a200-2975166c397d	Duszniki-Zdrój	50°24'15''	16°23'24''	285136.18	314586.87	POL	dolnośląskie	kłodzki	
52cef4dd-a3af-47d4-a7e0-37ba42b3f193	Dynów	49°48'51''	22°13'55''	221311.61	732434.83	POL	podkarpackie	rzeszowski	
e8fff71c-5379-45fc-83aa-9311e0b9cb61	Działdowo	53°14'19''	20°10'57''	597695.99	578891.94	POL	warmińsko-mazurskie	działdowski	
0984f35a-28ad-48da-a99e-58a256da235b	Działoszyce	50°21'58''	20°21'04''	278547.94	596067.45	POL	świętokrzyskie	pińczowski	
3b4cec27-7e77-4439-85c0-80b2b2c972f5	Działoszyn	51°07'01''	18°51'55''	361138.78	490573.21	POL	łódzkie	pajęczański	
969bd929-4963-4db8-9b0f-e35b59d21dac	Dzierzgoń	53°55'24''	19°20'43''	673253.73	522667.52	POL	pomorskie	sztumski	
0dec5d44-9ac3-4863-bb46-e81b7bcae4fb	Dzierżoniów	50°43'41''	16°39'05''	320542.7	334294.35	POL	dolnośląskie	dzierżoniowski	
c48d2c8d-51c9-442b-ae0f-3d8c1b0684fa	Dziwnów	54°01'39''	14°45'37''	693111.61	222436.96	POL	zachodniopomorskie	kamieński	
7daaee66-29a1-4938-b83a-134f4ccf5e27	Elbląg	54°09'41''	19°24'35''	699759.57	526747.88	POL	warmińsko-mazurskie	m. Elbląg	
e525f140-809e-4284-89d2-b27fe6ae2e72	Ełk	53°49'22''	22°21'10''	667235.22	720593.23	POL	warmińsko-mazurskie	ełcki	
4cb92444-0f14-4f5e-9bca-585cd61a2a52	Frampol	50°40'18''	22°40'14''	318045.97	759264.73	POL	lubelskie	biłgorajski	
ae9f3b68-0a32-4ec9-988f-b68f1bc5e1f7	Frombork	54°21'25''	19°40'55''	721650.16	544304.78	POL	warmińsko-mazurskie	braniewski	
ae9aab68-5543-4ec9-988f-b68f1bc5e1f7	Garwolin	51°53'51''	21°36'56''	451145.15	679898.99	POL	mazowieckie	garwoliński
f0c0b203-84e9-4241-90ce-0b58bad8b3cf	Gąbin	52°23'54''	19°44'03''	503863.63	549931.52	POL	mazowieckie	płocki	
a8dc0b72-b7bd-4430-bf6c-92407f525335	Gdańsk	54°20'59''	18°39'13''	720680.9	477491.9	POL	pomorskie	m. Gdańsk	
e4e89eae-15fd-49eb-93de-62af8e53a75d	Gdynia	54°31'04''	18°32'33''	739415.55	470393.45	POL	pomorskie	m. Gdynia	
88501c7b-9310-40af-a794-12e9706114fe	Giżycko	54°02'24''	21°46'18''	689715.48	681423.02	POL	warmińsko-mazurskie	giżycki	
06558e16-b665-4351-a014-2f08738eb1c0	Glinojeck	52°49'07''	20°17'03''	551108.98	586513.73	POL	mazowieckie	ciechanowski	
d1a32074-0d2a-4538-b007-4fe8bd2492e0	Gliwice	50°17'38''	18°39'56''	269688.86	476184.95	POL	śląskie	m. Gliwice	
cf619a2a-f07a-4698-b557-adeff705fecd	Głogów	51°39'53''	16°04'47''	426059.05	298108.88	POL	dolnośląskie	głogowski	
2f6d7162-f968-4341-b33d-cb7323d7800f	Głogów Małopolski	50°09'05''	21°57'46''	257983.54	711578.29	POL	podkarpackie	rzeszowski	
764dbfd2-e644-45ed-8984-cfd354fa2fac	Głogówek	50°21'12''	17°51'52''	276871.66	419242.08	POL	opolskie	prudnicki	
13b48302-cae8-4244-a268-1abfd7fb852f	Głowno	51°58'04''	19°42'50''	455966.01	549029.49	POL	łódzkie	zgierski	
fb751e19-c9fa-484c-bfa9-876b96e3adea	Głubczyce	50°12'00''	17°49'49''	259866.28	416547.59	POL	opolskie	głubczycki	
54b4ee81-2e7e-414c-bd42-b17bc3f297e0	Głuchołazy	50°18'54''	17°23'00''	273244.61	384943.94	POL	opolskie	nyski	
dae87030-2763-44a5-a860-989ef33d24f9	Głuszyca	50°41'15''	16°22'18''	316678.41	314407.81	POL	dolnośląskie	wałbrzyski	
b90bf62d-9fd3-4d7c-811c-71ac279e4551	Gniew	53°50'08''	18°49'20''	663461.24	488311.34	POL	pomorskie	tczewski	
cd359a2d-bb8c-483e-b18e-b5185b683cba	Gniewkowo	52°53'34''	18°24'31''	558749.07	460222.67	POL	kujawsko-pomorskie	inowrocławski	
f029437a-c9d4-427d-8a96-7674ed63d170	Gniezno	52°31'60''	17°36'05''	519531.77	405160.72	POL	wielkopolskie	gnieźnieński	
f18f9204-91c7-4c10-8b35-603e3a5eb126	Gogolin	50°29'30''	18°01'20''	292062.92	430662.9	POL	opolskie	krapkowicki	
4480fd58-16c9-46e7-916a-636ce77c1122	Golczewo	53°49'28''	14°58'42''	669713.41	235428.33	POL	zachodniopomorskie	kamieński	
33894930-87cd-4900-b40c-25d21cd16764	Goleniów	53°33'47''	14°49'47''	641227.66	223934.36	POL	zachodniopomorskie	goleniowski	
dc3be755-6c1c-469e-9481-4dd0c3b67afa	Golina	52°14'42''	18°05'39''	486941.24	438169.75	POL	wielkopolskie	koniński	
245a0b82-dde9-4536-b258-11855a93f05a	Golub-Dobrzyń	53°06'33''	19°03'09''	582657.32	503505.11	POL	kujawsko-pomorskie	golubsko-dobrzyński	
bb5d83c6-7684-411b-b849-0873483d861d	Gołańcz	52°56'36''	17°18'04''	565561.67	385880.84	POL	wielkopolskie	wągrowiecki	
6eddfe46-9981-42a8-8cd3-8f4d8dc1b00d	Gołdap	54°18'26''	22°18'08''	720913.62	714759.38	POL	warmińsko-mazurskie	gołdapski	
5efe8f7d-955a-4fa2-a8c3-ec0bc66a5df6	Goniądz	53°29'19''	22°43'57''	631332.1	747527.02	POL	podlaskie	moniecki	
dab6f692-0756-439d-8376-840d32cd6381	Gorlice	49°39'18''	21°09'36''	200851.69	655849.89	POL	małopolskie	gorlicki	
d3a2ad5f-4c3f-4e28-ab0f-a25ca50a594c	Gorzów Śląski	51°01'41''	18°25'20''	351418.38	459501.9	POL	opolskie	oleski	
01c1a6fe-53b8-4f85-8877-7f0a42def54d	Gorzów Wielkopolski	52°43'55''	15°14'22''	547329.79	246188.35	POL	lubuskie	m. Gorzów Wielkopolski	
79703e2c-6f3b-43fe-88d6-47cb7a36ec7e	Gostynin	52°25'45''	19°27'43''	507124.09	531397.98	POL	mazowieckie	gostyniński	
3382893f-f5ba-412b-b60d-4a7303bc9974	Gostyń	51°52'55''	17°00'44''	448063.17	363233.44	POL	wielkopolskie	gostyński	
b65533a9-1d0b-4957-b371-9c977b53721e	Gościno	54°03'05''	15°39'10''	692621.35	280956.88	POL	zachodniopomorskie	kołobrzeski	
e4e75b81-16bc-4e3e-a463-03adfc97e52c	Gozdnica	51°26'17''	15°05'48''	404046.07	228819.16	POL	lubuskie	żagański	
880b1149-be9d-4b6e-a5e6-5204e448375b	Góra	51°40'05''	16°32'21''	425259.47	329870.26	POL	dolnośląskie	górowski	
1a65c147-817e-476c-a6d2-ff02839feb43	Góra Kalwaria	51°59'07''	21°12'59''	459979.69	652143.4	POL	mazowieckie	piaseczyński	
7dd6eeab-f4ae-4b21-9c3f-72ec34cb6066	Górowo Iławeckie	54°17'16''	20°29'27''	714768.38	597020.85	POL	warmińsko-mazurskie	bartoszycki	
1a67a2c2-13fc-413f-802e-e1827da5e202	Górzno	53°11'52''	19°38'37''	592682.48	542973.63	POL	kujawsko-pomorskie	brodnicki	
1ab30faf-e9fe-4bf5-b738-c2ea5c3af2fa	Grabów nad Prosną	51°30'30''	18°06'53''	405003.22	438588.75	POL	wielkopolskie	ostrzeszowski	
2c9423c9-f5c5-451f-931e-0a76d8225b25	Grajewo	53°38'50''	22°27'17''	648028.34	728262.9	POL	podlaskie	grajewski	
ff3448b5-c67b-4c97-bb7c-6c3d09b94bb4	Grodków	50°41'55''	17°23'07''	315855.36	385993.53	POL	opolskie	brzeski	
c6efb1e0-d057-441b-84fa-21bff0eaf3cd	Grodzisk Mazowiecki	52°06'15''	20°37'36''	472139.31	611375.07	POL	mazowieckie	grodziski	
3ebc0fab-ea3e-4319-aae1-d370a2ee5a0b	Grodzisk Wielkopolski	52°13'28''	16°21'51''	487551.93	320026.15	POL	wielkopolskie	grodziski	
97064646-795b-4ef9-931f-a5dd53ae97e5	Grójec	51°51'56''	20°52'03''	446008.6	628544.63	POL	mazowieckie	grójecki	
ae1f9954-54a8-4faa-a120-ce3474c2d7fd	Grudziądz	53°29'17''	18°45'11''	624811.72	483613.39	POL	kujawsko-pomorskie	m. Grudziądz	
80d8dcea-14ba-4776-a3ae-27af240513f2	Grybów	49°37'29''	20°56'51''	197083.15	640611.64	POL	małopolskie	nowosądecki	
cea40b9d-4203-49ab-ac1c-4f7859aa322e	Gryfice	53°54'58''	15°11'55''	679084.54	250454.23	POL	zachodniopomorskie	gryficki	
8c359a90-2767-4ea1-977e-6d7497af3b42	Gryfino	53°15'24''	14°29'22''	608546.17	199271.78	POL	zachodniopomorskie	gryfiński	
d57ace6a-6a37-4e68-84e7-f5aca4600e38	Gryfów Śląski	51°01'41''	15°24'53''	357364.96	248683.9	POL	dolnośląskie	lwówecki	
dd1591bb-8dc9-496f-a74a-bb82f3456982	Gubin	51°57'27''	14°43'14''	463241.71	206082.45	POL	lubuskie	krośnieński	
cdf943e5-c814-4bb6-923e-0ecf32fc5654	Hajnówka	52°44'36''	23°35'01''	551819.92	809247.91	POL	podlaskie	hajnowski	
2215dc89-bd30-43d6-9bba-8468e45bd77a	Halinów	52°13'36''	21°21'12''	487108.09	660676.98	POL	mazowieckie	miński	
4621bb89-781e-4987-8663-d8736ffafab5	Hel	54°36'27''	18°48'11''	749317.59	487282.9	POL	pomorskie	pucki	
fd197837-a528-429d-b7cb-4f29e65f16c4	Hrubieszów	50°48'18''	23°53'23''	337858.7	844360.23	POL	lubelskie	hrubieszowski	
7d02c5fc-1143-459a-b2a1-6d83694ea49b	Iława	53°35'24''	19°34'00''	636266.34	537504.19	POL	warmińsko-mazurskie	iławski	
877ae331-d9ba-49ec-a6ab-cdf6cce031c6	Iłowa	51°30'13''	15°12'03''	410947.74	236433.5	POL	lubuskie	żagański	
f87e34fd-349e-4934-b336-50cfcfab2b27	Iłża	51°09'44''	21°14'14''	368554.74	656386.8	POL	mazowieckie	radomski	
23c60168-e9c1-420c-86f2-4725fcaffed7	Imielin	50°08'46''	19°11'09''	253238.46	513266.82	POL	śląskie	bieruńsko-lędziński	
70f9f2a5-d8cb-4363-82d1-00db85f04eb0	Inowrocław	52°47'47''	18°15'42''	548128.54	450227.01	POL	kujawsko-pomorskie	inowrocławski	
5b797db9-6820-4ac6-a1fc-b4d5dcf231b9	Ińsko	53°26'09''	15°32'54''	624513.61	270803.93	POL	zachodniopomorskie	stargardzki	
570e6477-748b-4b89-a1a8-1e21bf9e7928	Iwonicz-Zdrój	49°34'10''	21°47'36''	192855.92	701909.14	POL	podkarpackie	krośnieński	
65df7c44-14dd-412b-a862-25fea8d36197	Izbica Kujawska	52°25'14''	18°45'47''	506102.98	483895.17	POL	kujawsko-pomorskie	włocławski	
193a0a29-2d82-4104-bf89-646fa24e9504	Jabłonowo Pomorskie	53°23'19''	19°09'13''	613732.08	510209.01	POL	kujawsko-pomorskie	brodnicki	
1515b8dd-ae88-4840-ba25-e6195ccc34be	Janikowo	52°45'15''	18°06'44''	543545.85	440103.95	POL	kujawsko-pomorskie	inowrocławski	
52d9a6e9-f9a6-4493-8e53-aaf38989fba0	Janowiec Wielkopolski	52°45'25''	17°29'15''	544545.82	397954.34	POL	kujawsko-pomorskie	żniński	
8c43bcfd-e06e-46fb-8e47-ee673bb3039f	Janów Lubelski	50°42'24''	22°24'40''	321059.84	740753.49	POL	lubelskie	janowski	
2ac19d64-54d8-4989-a70c-79e2a8910979	Jaraczewo	51°58'08''	17°17'50''	457208.6	383066.22	POL	wielkopolskie	jarociński	
11628cdf-e18b-4e6f-921a-732fa8c2c769	Jarocin	51°58'21''	17°30'06''	457298.6	397106.56	POL	wielkopolskie	jarociński	
4792ff27-c696-421b-8131-e4979d8f3386	Jarosław	50°00'60''	22°40'40''	245293.74	763373.94	POL	podkarpackie	jarosławski	
cc48a1a6-5bb5-446d-82c5-50829fd5052a	Jasień	51°45'04''	15°00'44''	439161.91	224851.62	POL	lubuskie	żarski	
6bf5dafb-2080-454e-bc1c-176214d792bb	Jasło	49°44'45''	21°28'24''	211653.53	678133.43	POL	podkarpackie	jasielski	
2f6b07a3-aed3-4487-91ba-d3f7763b4b67	Jastarnia	54°42'10''	18°40'17''	759962.66	478836.39	POL	pomorskie	pucki	
402eb03c-e150-4d1e-bc6a-44fab729883b	Jastrowie	53°25'16''	16°48'56''	619559.03	354881.21	POL	wielkopolskie	złotowski	
a99c91f1-091b-4e6f-90b8-4d41b58d0fae	Jastrzębie-Zdrój	49°57'01''	18°34'27''	231528.66	469459.52	POL	śląskie	m. Jastrzębie-Zdrój	
75720f2d-a5f2-4a34-b657-ec6844c59e4c	Jawor	51°03'01''	16°11'37''	357471.1	303365.47	POL	dolnośląskie	jaworski	
59d67e40-d2ed-4b6f-9bc6-066befd9ea70	Jaworzno	50°12'15''	19°15'52''	259695.54	518865.3	POL	śląskie	m. Jaworzno	
e21317ac-2e39-4f28-9a4f-c797b9bf1f7b	Jaworzyna Śląska	50°54'52''	16°25'50''	341759.56	319431.91	POL	dolnośląskie	świdnicki	
34541acb-f952-4af6-b105-7bb125baee63	Jedlicze	49°42'46''	21°38'30''	208380.76	690373.65	POL	podkarpackie	krośnieński	
e1f58a3c-1939-4127-b208-fa8f227f9f6d	Jedlina-Zdrój	50°43'30''	16°20'49''	320905.05	312815.19	POL	dolnośląskie	wałbrzyski	
8ededa0b-0192-4095-b0eb-ac799abeb7eb	Jedwabne	53°17'14''	22°18'09''	607536.87	720057.59	POL	podlaskie	łomżyński	
f97e9a65-61f3-4366-99e2-c29e116a1b9c	Jelcz-Laskowice	51°02'24''	17°20'60''	353863.11	384348.51	POL	dolnośląskie	oławski	
1188a77d-f9b6-4d8d-8198-92f3b8dc7c94	Jelenia Góra	50°54'11''	15°44'05''	342436.46	270485.4	POL	dolnośląskie	m. Jelenia Góra	
26cce774-42f1-4936-9dd9-7a6c7a5089f0	Jeziorany	53°58'35''	20°44'46''	680518.65	614489.73	POL	warmińsko-mazurskie	olsztyński	
e3f1854d-19cf-4868-a67b-fdace8e2dbc8	Jędrzejów	50°38'25''	20°18'13''	308952.39	592149.01	POL	świętokrzyskie	jędrzejowski	
2bd1adf5-869c-463b-9465-a87a65f7eacc	Jordanów	49°38'58''	19°49'49''	198332.62	559920.09	POL	małopolskie	suski	
3b5d3343-5054-463e-8c2e-1b421fd0ae2a	Józefów	52°08'11''	21°14'07''	476830.03	652930.8	POL	mazowieckie	otwocki	
f2222be8-7de0-42e0-b0dc-47d812469254	Józefów	50°28'52''	23°03'10''	298290.11	787405.47	POL	lubelskie	biłgorajski	
501bd77b-2148-4b32-b59f-e3c8067f877e	Józefów nad Wisłą	51°02'27''	21°49'47''	356480.92	698301.28	POL	lubelskie	opolski	
051731a4-2b1d-491b-90ec-fbcce3606083	Jutrosin	51°39'05''	17°10'09''	422122.41	373385.88	POL	wielkopolskie	rawicki	
f621367c-8c85-48c5-b025-2c20bd988965	Kalety	50°33'58''	18°53'20''	299888.02	492140.53	POL	śląskie	tarnogórski	
c824ff4e-f1f0-4faa-8b24-6e581abd03a8	Kalisz	51°45'40''	18°05'13''	433145.43	437002.65	POL	wielkopolskie	m. Kalisz	
6fd4484b-3668-4de2-8a64-2bba086de03d	Kalisz Pomorski	53°17'54''	15°54'20''	608162.38	293864.92	POL	zachodniopomorskie	drawski	
7f428e9b-50b2-4f18-9f65-36c0092cd4b1	Kalwaria Zebrzydowska	49°51'60''	19°40'33''	222353.21	548561.46	POL	małopolskie	wadowicki	
23ee2f2d-a43c-47be-92d5-0a1ce006d2f0	Kałuszyn	52°12'31''	21°48'45''	486238.95	692097.57	POL	mazowieckie	miński	
2037a65b-d337-4609-ad6f-289a768d449f	Kamienna Góra	50°47'00''	16°01'58''	328242.38	290900.92	POL	dolnośląskie	kamiennogórski	
0368f0eb-630e-463e-b7fd-516da9c3aed1	Kamień Krajeński	53°31'58''	17°31'14''	630778.06	401977.25	POL	kujawsko-pomorskie	sępoleński	
6025e2ff-85a3-42e6-a1e8-df388379d0a4	Kamień Pomorski	53°58'07''	14°46'22''	686506.79	222851.56	POL	zachodniopomorskie	kamieński	
1d78970a-f283-4af3-91c8-0ca6480119fc	Kamieńsk	51°12'16''	19°29'49''	370975.14	534706.41	POL	łódzkie	radomszczański	
eb2e5ad4-578f-4581-b577-c5ba2b4b8901	Kańczuga	49°59'01''	22°24'51''	240732.73	744668.07	POL	podkarpackie	przeworski	
4e290ebd-d429-42e7-8586-895301fff125	Karczew	52°04'33''	21°15'01''	470123.66	654157.92	POL	mazowieckie	otwocki	
a5a588d5-5caa-496a-948f-d4d968fcd214	Kargowa	52°04'19''	15°51'52''	471934.35	285174.66	POL	lubuskie	zielonogórski	
7e2f720e-02ac-4441-bd5b-f759caf27c70	Karlino	54°02'17''	15°52'45''	690463.91	295710.08	POL	zachodniopomorskie	białogardzki	
dd98414c-1457-4c2d-a7ff-84ba07c94c0a	Karpacz	50°46'29''	15°45'17''	328108.59	271264.31	POL	dolnośląskie	jeleniogórski	
069d113e-6b78-4e26-b1a8-f8e28f145a38	Kartuzy	54°20'01''	18°12'10''	719126.43	448177.26	POL	pomorskie	kartuski	
2e2ac688-7318-4525-8002-905c7bb03ed6	Katowice	50°15'35''	19°00'48''	265837.62	500950.12	POL	śląskie	m. Katowice	
93b8dc1f-766c-4f50-af2f-4703a82d8455	Kazimierz Dolny	51°19'20''	21°56'51''	388062.01	705301.63	POL	lubelskie	puławski	
2333f543-faef-4363-ab40-3de9a094b7fc	Kazimierza Wielka	50°16'03''	20°29'13''	267772.11	605930.04	POL	świętokrzyskie	kazimierski	
fda4f131-8246-4787-bd00-e1b4a9725ce8	Kąty Wrocławskie	51°01'47''	16°46'16''	353812.3	343753.9	POL	dolnośląskie	wrocławski	
642a75eb-45a2-44d5-8a12-a40445a93d77	Kcynia	52°59'30''	17°29'14''	570659.02	398492.31	POL	kujawsko-pomorskie	nakielski	
25b4bc10-365d-4497-a7ac-5180caad4a2e	Kędzierzyn-Koźle	50°20'39''	18°12'26''	275524.78	443614.73	POL	opolskie	kędzierzyńsko-kozielski	
41ebd647-b1bf-4bd9-8f68-4d95541a0893	Kępice	54°14'32''	16°53'16''	710726.7	362400.99	POL	pomorskie	słupski	
f07a0fbe-f2ff-46c3-a932-ac445f8b94b7	Kępno	51°16'45''	17°59'00''	379651.44	429120.23	POL	wielkopolskie	kępiński	
df556a53-b364-480d-a10a-4ac7abed8bea	Kętrzyn	54°04'38''	21°22'29''	692918.92	655320.64	POL	warmińsko-mazurskie	kętrzyński	
dfc285cf-1913-4d48-a447-9983a42b1f84	Kęty	49°53'01''	19°13'20''	224066.59	515969.21	POL	małopolskie	oświęcimski	
489ef6bc-8e67-4584-86d1-d821233c277e	Kielce	50°52'18''	20°37'53''	335138.02	614758.99	POL	świętokrzyskie	m. Kielce	
c25e3afa-9073-43ca-8c0f-e7f47b1025b8	Kietrz	50°04'47''	18°00'08''	246297.89	428633.95	POL	opolskie	głubczycki	
68b683d3-bd5a-4244-b4c1-7141da4747bd	Kisielice	53°36'33''	19°15'32''	638278.4	517129.23	POL	warmińsko-mazurskie	iławski	
031b5b1e-e933-4a2d-8412-b0bcef87d13f	Kleczew	52°22'15''	18°10'23''	500867.29	443715.54	POL	wielkopolskie	koniński	
f233398d-f9cd-45ee-b047-95b6d58dba2a	Kleszczele	52°34'30''	23°19'33''	532037.17	792990.16	POL	podlaskie	hajnowski	
4822c13d-ae3e-42c2-832b-b53e5f8fda2b	Klimontów	50°39'23''	21°27'01''	312808.91	673147.56	POL	świętokrzyskie	sandomierski	
c080c312-d263-492e-9bb4-fdcea4d7b063	Kluczbork	50°58'23''	18°12'52''	345429.27	444872.18	POL	opolskie	kluczborski	
157c93b8-435d-4975-8b45-8bcc788eda38	Kłecko	52°37'54''	17°25'46''	530718.27	393748.86	POL	wielkopolskie	gnieźnieński	
8909d129-7e8b-4238-96e9-b5968446f679	Kłobuck	50°54'19''	18°56'16''	337595.57	495631.09	POL	śląskie	kłobucki	
4574367d-3fff-4d7d-b649-3b6c9e1b37cb	Kłodawa	52°15'13''	18°54'47''	487505.3	494074.99	POL	wielkopolskie	kolski	
3db168fe-dd71-4559-952f-20696c5bad37	Kłodzko	50°26'15''	16°39'10''	288217.09	333373.39	POL	dolnośląskie	kłodzki	
aabca85b-9deb-4cc1-8447-2b918e206cec	Knurów	50°13'23''	18°40'01''	261818.79	476248.04	POL	śląskie	gliwicki	
4467dd40-d699-480c-8e13-ec932ca09849	Knyszyn	53°18'46''	22°55'10''	612446.74	760996.04	POL	podlaskie	moniecki	
76d29267-a2d3-43a0-af54-45bfcd87e9a1	Kobylin	51°42'60''	17°13'36''	429286.3	377535.61	POL	wielkopolskie	krotoszyński	
03d0eb7e-e522-44e8-a515-4d9f81d7b677	Kobyłka	52°20'22''	21°11'50''	499311.76	649645.67	POL	mazowieckie	wołomiński	
e6839673-e2bc-4617-afb5-47bd6a6a3bcd	Kock	51°38'23''	22°26'47''	424874.35	738384.79	POL	lubelskie	lubartowski	
88c9e5aa-ef64-4494-8efa-a4103fb3318e	Kolbuszowa	50°14'35''	21°46'27''	267681.32	697736.02	POL	podkarpackie	kolbuszowski	
83ce3a38-d9e3-4e86-b87c-7ef5103d1121	Kolno	53°24'33''	21°56'07''	620025.25	695037.04	POL	podlaskie	kolneński	
c2c2fc99-ee09-4843-89f8-a2082fb83dcb	Kolonowskie	50°39'12''	18°23'03''	309760.61	456484.3	POL	opolskie	strzelecki	
43ae8f22-0bf1-4aca-b36e-20a5c765a585	Koluszki	51°44'42''	19°49'02''	431274.44	556408.21	POL	łódzkie	łódzki wschodni	
2aa27dd3-4ce6-4e41-9336-9257d24923fa	Kołaczyce	49°48'25''	21°26'03''	218366.38	675093.06	POL	podkarpackie	jasielski	
ab35f968-6002-4b2b-b224-fb4ca7134fac	Koło	52°12'16''	18°37'57''	482105.59	474900.6	POL	wielkopolskie	kolski	
67d76462-58f7-416c-937d-dfd2b63a0ca4	Kołobrzeg	54°10'47''	15°34'20''	707153.95	276396.71	POL	zachodniopomorskie	kołobrzeski	
b90a3182-787c-4bf0-ba08-2bffd01b3d48	Koniecpol	50°46'22''	19°40'37''	323075.36	547709.85	POL	śląskie	częstochowski	
71985443-2968-421e-81ad-34ce566ccf84	Konin	52°13'41''	18°15'15''	484934.98	449067.63	POL	wielkopolskie	m. Konin	
a8c8e8cc-928f-4a7a-a950-29bb331ed030	Konstancin-Jeziorna	52°05'34''	21°07'05''	471744.22	645061.3	POL	mazowieckie	piaseczyński	
c4ee3119-5084-4a6d-9de7-d97508b56444	Konstantynów Łódzki	51°44'53''	19°19'32''	431332.77	522461.86	POL	łódzkie	pabianicki	
46da9eb0-bbdd-4f46-bc1c-85569ede8d6d	Końskie	51°11'30''	20°24'26''	370370.32	598299.62	POL	świętokrzyskie	konecki	
829c2234-e68c-4ae6-b885-4414f75109c3	Koprzywnica	50°35'36''	21°35'04''	306099.07	682872.56	POL	świętokrzyskie	sandomierski	
57e6caaa-fce9-46dd-8f51-53de8aedb6eb	Korfantów	50°29'17''	17°35'44''	292170.72	400396.5	POL	opolskie	nyski	
89cd6552-ec20-47ec-b007-f4408b20c568	Koronowo	53°18'36''	17°56'32''	605516.96	429541.13	POL	kujawsko-pomorskie	bydgoski	
2f4a1556-f542-4718-bc65-baf14a066897	Korsze	54°10'20''	21°08'26''	703011.39	639686.55	POL	warmińsko-mazurskie	kętrzyński	
81417942-8735-4243-b7ce-6bb22c3569a3	Kosów Lacki	52°35'45''	22°08'49''	530220.75	713074.86	POL	mazowieckie	sokołowski	
f4e2d789-6b37-460d-85cf-db27c29be322	Kostrzyn	52°23'50''	17°13'32''	504963.54	379303.32	POL	wielkopolskie	poznański	
441fff12-084f-4932-91f6-ef2956d76057	Kostrzyn nad Odrą	52°35'24''	14°38'51''	533797.47	205302.47	POL	lubuskie	gorzowski	
12c2a873-7e87-4d2d-9e33-bda11055cfc9	Koszalin	54°11'25''	16°10'55''	706552.33	316196.57	POL	zachodniopomorskie	m. Koszalin	
bfb15df9-d49b-4126-be41-3e3e1fe9b5d3	Koszyce	50°10'07''	20°34'40''	256889.58	612637.65	POL	małopolskie	proszowicki	
97ca3bf9-3a46-4ae0-aa66-4b1a677cdc2d	Kościan	52°05'09''	16°38'39''	471476.05	338644.96	POL	wielkopolskie	kościański	
aa6d7bf7-de39-4b49-9236-491e68349259	Kościerzyna	54°07'16''	17°58'39''	695679.9	433191.45	POL	pomorskie	kościerski	
1dc1fc56-eeef-47ee-aa55-0c4effbe7139	Kowal	52°31'50''	19°08'55''	518306.72	510083.4	POL	kujawsko-pomorskie	włocławski	
dc028025-b12d-4eb4-8744-208b733b2f09	Kowalewo Pomorskie	53°09'17''	18°53'53''	587716.6	493191.41	POL	kujawsko-pomorskie	golubsko-dobrzyński	
40070e8a-bf36-4fc1-a35d-8336b1c17119	Kowary	50°47'33''	15°50'11''	329825.31	277119.46	POL	dolnośląskie	jeleniogórski	
9e6de037-c02c-47df-ab31-185ed3db8623	Koziegłowy	50°35'54''	19°09'43''	303489.87	511457.97	POL	śląskie	myszkowski	
dfaca58b-5a8f-4c89-b4f6-25555be017b6	Kozienice	51°35'06''	21°32'58''	416246.28	676567.94	POL	mazowieckie	kozienicki	
e5d6e47e-2e3b-4897-ad80-c7f6baaece96	Koźmin Wielkopolski	51°49'38''	17°27'10''	441226.53	393417.45	POL	wielkopolskie	krotoszyński	
a6318eea-6651-4a91-9db3-74de1b276d03	Kożuchów	51°44'43''	15°35'40''	436474.9	264984.92	POL	lubuskie	nowosolski	
47db9e22-0f84-4f20-82b6-89f003d1f76d	Kórnik	52°14'55''	17°05'23''	488669.6	369628.09	POL	wielkopolskie	poznański	
17e29d55-da2b-4138-a73e-dbf8d3e8386e	Krajenka	53°17'49''	16°59'26''	605428.18	366112.96	POL	wielkopolskie	złotowski	
1d575724-b4a9-430a-8d34-58fdb5d53b96	Kraków	50°03'42''	19°56'15''	244256.23	567071.76	POL	małopolskie	m. Kraków	
887ade7e-d61b-4f85-8f4e-1b5ac835332e	Krapkowice	50°28'29''	17°58'02''	290235.27	426732.64	POL	opolskie	krapkowicki	
93fb1aba-44ef-41c5-ac92-28497f22eacf	Krasnobród	50°32'42''	23°12'41''	306006.33	798246.83	POL	lubelskie	zamojski	
1ba60627-ed24-4754-9c6f-89fef2a0a894	Krasnystaw	50°58'54''	23°10'02''	354344.77	792390.76	POL	lubelskie	krasnostawski	
03c3de61-e064-4335-8e54-d08553e0f623	Kraśnik	50°55'18''	22°13'10''	344359.42	726201.74	POL	lubelskie	kraśnicki	
e890b15f-4e9a-4ad2-a433-eb1b7fd92560	Krobia	51°46'27''	16°59'05''	436121.55	360997.08	POL	wielkopolskie	gostyński	
dbd26d55-e883-4649-95d8-5f6de80bb9ee	Krosno	49°41'32''	21°46'01''	206423.07	699482.31	POL	podkarpackie	m. Krosno	
70c07447-88e9-4ead-987d-175ac5343b7c	Krosno Odrzańskie	52°03'08''	15°05'50''	472304.54	232519.5	POL	lubuskie	krośnieński	
181211b9-839c-45b5-bcab-0585be2f6731	Krośniewice	52°15'22''	19°10'15''	487799.6	511651.02	POL	łódzkie	kutnowski	
6a9d408f-7284-4e2d-9e2b-c2c41a5b5059	Krotoszyn	51°41'45''	17°26'15''	426633.52	392051.86	POL	wielkopolskie	krotoszyński	
03e62d33-1fee-445d-a6ed-b821e0b28028	Kruszwica	52°40'34''	18°19'23''	534716.96	454244.38	POL	kujawsko-pomorskie	inowrocławski	
a1f1cafd-b6dc-4175-99b7-3db809f9f8da	Krynica-Zdrój	49°25'17''	20°57'35''	174508.1	642080.06	POL	małopolskie	nowosądecki	
0a4c1a2d-f3ce-4414-bc8b-80345af65899	Krynica Morska	54°22'48''	19°26'13''	724081.47	528371.42	POL	pomorskie	nowodworski	
1d7e7478-d393-4ae1-a48a-3be61b69e102	Krynki	53°15'52''	23°46'28''	610544.19	818251.84	POL	podlaskie	sokólski	
562b3a0b-b787-4f2c-9b52-619621e5371e	Krzanowice	50°01'07''	18°07'31''	239410.33	437349.53	POL	śląskie	raciborski	
62cfb86f-9951-4d60-91b5-08f2e060c9d0	Krzepice	50°58'15''	18°43'42''	344921.92	480931.05	POL	śląskie	kłobucki	
f3869479-e15b-4ae7-8c14-b1709c3bfc67	Krzeszowice	50°08'06''	19°38'12''	252179.87	545483.82	POL	małopolskie	krakowski	
b9e872c2-f9c3-49c9-bd2b-370cb71b2892	Krzywiń	51°57'42''	16°49'15''	457295.3	350320.11	POL	wielkopolskie	kościański	
94a91888-869f-4974-99f9-1bb5523c538b	Krzyż Wielkopolski	52°52'45''	16°00'49''	561237.63	299109.02	POL	wielkopolskie	czarnkowsko-trzcianecki	
6013bb06-9797-4b89-bc8e-bed95b4afa5f	Książ Wielkopolski	52°03'45''	17°14'21''	467710.39	379331.28	POL	wielkopolskie	śremski	
125b3ebd-60f7-452f-aac9-2689edb5a657	Kudowa-Zdrój	50°26'27''	16°14'26''	289612.03	304131.2	POL	dolnośląskie	kłodzki	
425aa386-0183-4b7e-a005-1d94230edf0c	Kunów	50°57'17''	21°16'46''	345569.2	660041.7	POL	świętokrzyskie	ostrowiecki	
ce863548-9193-4159-9b56-3e26d1cf5a5e	Kutno	52°14'03''	19°21'28''	485406.46	524426.32	POL	łódzkie	kutnowski	
2d6518d1-1a92-4206-8c8e-cc0b7b0c47bd	Kuźnia Raciborska	50°12'01''	18°18'41''	259459.64	450859.96	POL	śląskie	raciborski	
80c679d1-8867-4eeb-b662-680af4bfab8b	Kwidzyn	53°44'09''	18°56'20''	652345.77	495969.9	POL	pomorskie	kwidzyński	
d86ddcd2-0112-42fb-b029-3d299d271e6e	Lądek-Zdrój	50°20'33''	16°53'14''	277172.55	349713.22	POL	dolnośląskie	kłodzki	
abe0e942-c038-48f5-a7e8-79681ea9c279	Legionowo	52°24'12''	20°55'37''	505903.48	631047.97	POL	mazowieckie	legionowski	
886e92ec-18a3-4994-ab54-375b392e68a1	Legnica	51°12'24''	16°09'46''	374925.81	301877.27	POL	dolnośląskie	m. Legnica	
fa52ddba-a47b-4728-b1cd-2d710c05ba04	Lesko	49°28'23''	22°19'46''	183728.35	741115.95	POL	podkarpackie	leski	
545234aa-eaa7-4359-b945-84355df4a8c9	Leszno	51°50'36''	16°34'28''	444668.41	332964.04	POL	wielkopolskie	m. Leszno	
08f9955a-be35-437b-b209-b10432d35911	Leśna	51°01'26''	15°15'50''	357416.45	238096.35	POL	dolnośląskie	lubański	
d6cb73b8-dd47-4213-97f9-3017e535d0a1	Leśnica	50°25'43''	18°10'59''	284938.27	441986.55	POL	opolskie	strzelecki	
ec38da0a-36ba-432b-9f78-518aea2ac20e	Lewin Brzeski	50°45'19''	17°36'58''	321829.39	402410.53	POL	opolskie	brzeski	
01932259-aa36-4961-bc8d-065cc4be27d6	Leżajsk	50°15'48''	22°25'03''	271825.95	743482.43	POL	podkarpackie	leżajski	
3635121f-9fa0-44a0-a1b1-bbf35b36edcd	Lębork	54°32'37''	17°44'60''	742901.61	419155.61	POL	pomorskie	lęborski	
143cab08-40b2-40d7-91ec-7cd3d2f13991	Lędziny	50°07'49''	19°06'30''	251452.21	507747.53	POL	śląskie	bieruńsko-lędziński	
46d33765-6a95-4067-8cf1-c675e3982957	Libiąż	50°06'24''	19°19'47''	248870.32	523578.65	POL	małopolskie	chrzanowski	
b785c7c6-3eff-49d6-84aa-eaa669da9982	Lidzbark	53°15'41''	19°49'20''	599886.56	554828.82	POL	warmińsko-mazurskie	działdowski	
b6882d75-9ea3-494c-809b-cc1403ee9161	Lidzbark Warmiński	54°07'33''	20°34'59''	696884.73	603411.71	POL	warmińsko-mazurskie	lidzbarski	
c6bd1b31-630c-449f-8fbe-c306231ccc5b	Limanowa	49°42'23''	20°25'22''	205312.49	602547.32	POL	małopolskie	limanowski	
99c97ced-90b9-43fe-b96b-b329193c937e	Lipiany	53°00'11''	14°58'08''	578435.27	229629.54	POL	zachodniopomorskie	pyrzycki	
a7127bce-8f4b-4c0d-ab3f-312990fbf341	Lipno	52°50'45''	19°10'54''	553376.19	512222.08	POL	kujawsko-pomorskie	lipnowski	
c4518555-1d72-4526-b38c-9aeafea870ee	Lipsk	53°43'59''	23°24'16''	661041.49	790380.15	POL	podlaskie	augustowski	
f297ca89-25b7-4d41-a795-4bd249e90dd4	Lipsko	51°09'29''	21°38'57''	369036.25	685189.05	POL	mazowieckie	lipski	
b02e2729-85cd-42cf-9f46-1379a04dcabf	Lubaczów	50°09'26''	23°07'27''	262587.72	794468.08	POL	podkarpackie	lubaczowski	
0856ea1a-9dc9-4b3e-9610-4c891ac26b27	Lubań	51°07'12''	15°17'22''	368017.22	240420.34	POL	dolnośląskie	lubański	
3aa45fed-d0db-483c-af22-7e0811d267eb	Lubartów	51°27'28''	22°36'34''	405194.18	750661.53	POL	lubelskie	lubartowski	
0e9ef4a3-ec8d-4ba2-967a-25b26d5b3e96	Lubawa	53°30'12''	19°44'53''	626760.48	549608.3	POL	warmińsko-mazurskie	iławski	
eacb61f6-74f6-417e-b901-ae8f59f5ccaf	Lubawka	50°42'25''	15°59'60''	319830.39	288246.27	POL	dolnośląskie	kamiennogórski	
d2a86d52-0d72-4853-875e-718d324d4947	Lubień Kujawski	52°24'19''	19°09'56''	504393.86	511265.79	POL	kujawsko-pomorskie	włocławski	
a675218d-59a0-472c-af0c-cfa9cd442023	Lubin	51°23'55''	16°12'12''	396155.17	305520.72	POL	dolnośląskie	lubiński	
b122b905-ad7d-4a1c-b2b0-109366fcc51b	Lublin	51°14'52''	22°34'05''	381735.66	748921.57	POL	lubelskie	m. Lublin	
637eba1b-39d1-4db7-bd3a-17f0ac60481a	Lubliniec	50°40'09''	18°40'59''	311399.34	477609.1	POL	śląskie	lubliniecki	
d6ab7e8e-178f-43c8-be9e-535bc4df2a1c	Lubniewice	52°30'45''	15°14'41''	522931.73	245281.77	POL	lubuskie	sulęciński	
d095fe2a-76fa-4b87-9dc0-c9b73c5a4eaf	Lubomierz	51°00'46''	15°30'38''	355342.62	255317.04	POL	dolnośląskie	lwówecki	
0448e9c5-916a-424c-bf94-d7f8d9197d77	Luboń	52°20'45''	16°52'40''	499894.34	355482.07	POL	wielkopolskie	poznański	
2c28e84e-435b-4474-b7e9-8c2cce0635b2	Lubowidz	53°07'13''	19°50'41''	584204.57	556522.99	POL	mazowieckie	żuromiński	
8c9c1417-8266-4fe5-b2fa-2d0229fbeeba	Lubraniec	52°32'38''	18°50'08''	519795.32	488859.19	POL	kujawsko-pomorskie	włocławski	
af611362-9dbf-424e-b8a7-801b541cc2e0	Lubsko	51°47'08''	14°58'07''	443147.61	222051.94	POL	lubuskie	żarski	
97578021-99be-42b4-aeb6-e3f548504112	Lubycza Królewska	50°20'26''	23°31'14''	284601.65	821531.34	POL	lubelskie	tomaszowski	
78b4b153-769a-4f54-8761-5aa1950001e2	Lututów	51°22'17''	18°26'03''	389563.01	460625.45	POL	łódzkie	wieruszowski	
54a8e3f0-f9f7-4edf-b26f-4860f4305229	Lwówek	52°26'53''	16°10'51''	512856.62	308476.61	POL	wielkopolskie	nowotomyski	
26ed21b0-fa7d-4bef-894e-0b484f8ff25c	Lwówek Śląski	51°06'39''	15°35'06''	365996.63	261043.81	POL	dolnośląskie	lwówecki	
4e4fe4d0-a690-4169-bf1c-7325bc723ab2	Łabiszyn	52°57'11''	17°55'09''	565825.9	427400.6	POL	kujawsko-pomorskie	żniński	
c3e24f90-ac55-4e4e-84da-2e47510c7ba9	Łagów	50°46'30''	21°05'03''	325183.57	646897.34	POL	świętokrzyskie	kielecki	
1f08d604-3d86-44d9-904a-a11d9d92bca4	Łańcut	50°04'09''	22°14'06''	249668.62	731419.15	POL	podkarpackie	łańcucki	
31716f67-b2c2-430b-a5db-9144aaee7fda	Łapy	52°59'22''	22°52'47''	576376.31	760300.2	POL	podlaskie	białostocki	
2aa61ccb-8580-497c-8bbd-ae98186cdffc	Łasin	53°31'07''	19°05'11''	628192.16	505727.36	POL	kujawsko-pomorskie	grudziądzki	
8282e8e2-5509-4d78-8cbe-f2f76ae9d932	Łask	51°35'29''	19°08'01''	413886	509252.97	POL	łódzkie	łaski	
ca2ce069-9710-4671-bd2c-080b5504e305	Łaskarzew	51°47'25''	21°35'35''	439170.44	678777.38	POL	mazowieckie	garwoliński	
eb79b24c-d90b-49a2-8865-2380e5088d0b	Łaszczów	50°31'54''	23°42'57''	306702.59	834044.95	POL	lubelskie	tomaszowski	
45ab937a-b3a5-4847-b48b-bd737efbfcba	Łaziska Górne	50°08'58''	18°50'23''	253591.81	488553.06	POL	śląskie	mikołowski	
4f5038a2-d7fc-4b1b-8249-821caa03826d	Łazy	50°25'39''	19°23'39''	284561.57	527989.26	POL	śląskie	zawierciański	
ddcebfda-8dfb-4a3c-b436-8858d7eea061	Łeba	54°45'39''	17°33'24''	767296.67	407153.26	POL	pomorskie	lęborski	
707d15d1-26c9-40d3-be05-ce51e24daad0	Łęczna	51°18'17''	22°52'56''	389172.09	770499.52	POL	lubelskie	łęczyński	
c340759e-774b-4aba-a663-ca76cd4ef4ed	Łęczyca	52°03'33''	19°11'54''	465919.35	513600.98	POL	łódzkie	łęczycki	
c2135806-c1d8-48de-a2e6-94c1cb7255b5	Łęknica	51°32'12''	14°44'33''	416392.06	204868.69	POL	lubuskie	żarski	
e646163d-c87d-4a71-a032-a13df43ec23c	Łobez	53°38'22''	15°37'19''	646925.65	276766.42	POL	zachodniopomorskie	łobeski	
1b5b9caf-74ed-4b18-b0d1-fbb34e55f128	Łobżenica	53°15'37''	17°15'19''	600875.19	383659.3	POL	wielkopolskie	pilski	
be1eb5aa-5bb6-447b-bed2-e494496ee05a	Łochów	52°31'50''	21°40'54''	521695.01	681835.67	POL	mazowieckie	węgrowski	
1459df4a-8e41-4c7e-bb3b-dd2b7a1a6e6a	Łomianki	52°20'01''	20°53'13''	498080.25	628528.27	POL	mazowieckie	warszawski zachodni	
98419cba-ce00-4d43-bcc6-66b4def73369	Łomża	53°10'43''	22°04'32''	594787.46	705459.72	POL	podlaskie	m. Łomża	
5d45c0af-6e7a-4f90-81c2-2dde428ef8c2	Łosice	52°12'40''	22°43'04''	489295.14	753898.13	POL	mazowieckie	łosicki	
c8405341-4df1-4c39-833e-ba52f302c4ae	Łowicz	52°06'29''	19°56'46''	471751.8	564764.97	POL	łódzkie	łowicki	
9ee174b2-df80-4c22-bae3-cee6f7e8c80e	Łódź	51°45'52''	19°27'47''	433219.84	531945.92	POL	łódzkie	m. Łódź	
c9e6a4dd-55cc-4c62-ac3e-d0bc18be4d73	Łuków	51°55'48''	22°22'50''	456919.74	732346.21	POL	lubelskie	łukowski	
bbe5b0bb-7ad7-474c-b2b3-d11586da5103	Maków Mazowiecki	52°51'47''	21°06'06''	557347.32	641438.46	POL	mazowieckie	makowski	
c4a8b9b5-b559-41bb-8c99-fa45269056a8	Maków Podhalański	49°43'49''	19°40'35''	207208.68	548730.66	POL	małopolskie	suski	
4ad0edf0-c060-4ddc-a03a-bad5cc13c468	Malbork	54°02'09''	19°01'43''	685719	501868.16	POL	pomorskie	malborski	
5656b6c9-1942-4d7a-a485-8059fead173a	Małogoszcz	50°48'43''	20°15'51''	327998.15	589038.92	POL	świętokrzyskie	jędrzejowski	
358727e0-2d3a-4bfd-9efd-22a1be7a9ee2	Małomice	51°33'19''	15°26'55''	415837.19	253895.22	POL	lubuskie	żagański	
25d70113-787c-4cf7-8073-6bd05856004f	Margonin	52°58'24''	17°05'40''	569247.1	372081.91	POL	wielkopolskie	chodzieski	
c64d424b-e340-4800-abc2-04a6c0bb4c9a	Marki	52°20'15''	21°06'53''	498935.9	644024.31	POL	mazowieckie	wołomiński	
6cfce3db-dda8-4a76-a218-a4864506c117	Maszewo	53°29'52''	15°03'34''	633098.09	238746.07	POL	zachodniopomorskie	goleniowski	
28a88eeb-c55b-467e-96ea-8c4fc3ffdc6a	Miasteczko Śląskie	50°29'26''	18°55'20''	291499.41	494484.54	POL	śląskie	tarnogórski	
6a401a9e-0570-43a1-8acf-deff510a741c	Miastko	54°00'01''	16°58'35''	683651.51	367402.41	POL	pomorskie	bytowski	
68abc12f-61d6-4690-9ee4-ff32dec0d584	Michałowo	53°01'60''	23°36'23''	584139.57	808713.52	POL	podlaskie	białostocki	
0066be5f-fd07-4e2f-ab5e-f6beb0852b97	Miechów	50°21'21''	20°01'43''	277026.6	573149.34	POL	małopolskie	miechowski	
ffb235e2-9026-4a9a-96ab-4d0e8cf7e601	Miejska Górka	51°39'20''	16°57'25''	422974.09	358715.71	POL	wielkopolskie	rawicki	
6da386ce-d2b5-48dd-8527-1c627f94fbf2	Mielec	50°17'16''	21°25'15''	271745.15	672398.42	POL	podkarpackie	mielecki	
2c826232-8b8a-4db9-ad3f-80b864d4508c	Mielno	54°15'22''	16°03'08''	714211.04	308040.89	POL	zachodniopomorskie	koszaliński	
121f3167-3461-487a-9a63-a75efe2d7045	Mieroszów	50°39'59''	16°11'12''	314818.11	301252.56	POL	dolnośląskie	wałbrzyski	
db8923cc-6aa0-4b4a-8f57-2ef947699c35	Mieszkowice	52°47'12''	14°29'36''	556318.96	196243.04	POL	zachodniopomorskie	gryfiński	
4ccc0b16-d9d8-4c2e-8bd4-e4c2de7268b7	Międzybórz	51°23'53''	17°39'54''	393213.12	407159.74	POL	dolnośląskie	oleśnicki	
420dfbe6-43c5-4baf-b8de-7f6ba5c41c97	Międzychód	52°36'16''	15°53'58''	531036.13	290116.92	POL	wielkopolskie	międzychodzki	
dd72a1a5-3a5a-4ff7-8f9c-7dc7b9dcdd26	Międzylesie	50°08'52''	16°40'02''	255986.56	333393.43	POL	dolnośląskie	kłodzki	
1aea30c4-7a20-4a83-bff1-cc82d33dddca	Międzyrzec Podlaski	51°59'14''	22°46'51''	464650.04	759497.13	POL	lubelskie	bialski	
bbaf465e-d0c8-4901-a329-34089a8386eb	Międzyrzecz	52°26'44''	15°34'43''	514355.22	267566.26	POL	lubuskie	międzyrzecki	
216d622e-7f6a-45f7-841c-c591f52adade	Międzyzdroje	53°55'44''	14°27'01''	683397.45	201442.69	POL	zachodniopomorskie	kamieński	
60fe1309-fab6-4769-b799-c9f4a2d601ee	Mikołajki	53°48'13''	21°34'18''	662937.58	669303.87	POL	warmińsko-mazurskie	mrągowski	
4110c18c-4c14-4414-a3a3-5ad98fc876ee	Mikołów	50°10'11''	18°54'19''	255837.85	493237.49	POL	śląskie	mikołowski	
457a342f-c882-45fe-b898-1f7f173943b0	Mikstat	51°31'56''	17°58'23''	407789.5	428788.31	POL	wielkopolskie	ostrzeszowski	
ef77f631-c704-4e5e-bea5-21115ab45839	Milanówek	52°07'31''	20°39'56''	474546.83	613983.68	POL	mazowieckie	grodziski	
1337ec49-d98c-4e50-93b1-c49eab9efb5c	Milicz	51°31'27''	17°16'22''	407831.53	380206.2	POL	dolnośląskie	milicki	
8f842754-ba8c-4a14-8771-dad945ffecb0	Miłakowo	54°00'33''	20°04'11''	683261.39	570078.57	POL	warmińsko-mazurskie	ostródzki	
25fa7322-83f3-4a8d-8f05-03cff2b82c15	Miłomłyn	53°45'52''	19°50'12''	655863.98	555135.53	POL	warmińsko-mazurskie	ostródzki	
3a9427c6-a753-41a5-a1d4-ed868576b837	Miłosław	52°12'10''	17°29'19''	482937.23	396746.13	POL	wielkopolskie	wrzesiński	
175a1773-47a6-4dd9-abc3-693870e12ff2	Mińsk Mazowiecki	52°10'42''	21°34'17''	482267.07	675761.17	POL	mazowieckie	miński	
b5a47992-fa99-4799-88ad-45d5cbb83d1a	Mirosławiec	53°20'29''	16°05'17''	612439.84	306212.03	POL	zachodniopomorskie	wałecki	
034e54ca-9484-451c-a347-f4f09e42126f	Mirsk	50°58'12''	15°22'59''	351035.56	246152.55	POL	dolnośląskie	lwówecki	
345839eb-1af3-4e39-83fb-d983d4ec51c8	Mława	53°06'41''	20°22'54''	583792.21	592457.75	POL	mazowieckie	mławski	
b5fe4395-f0af-4c20-8c61-335afa8d9519	Młynary	54°11'16''	19°43'22''	702860.38	547149.28	POL	warmińsko-mazurskie	elbląski	
48197f65-db2e-4efd-b16c-7f3fdc089b43	Modliborzyce	50°45'14''	22°19'46''	326052.12	734761.95	POL	lubelskie	janowski	
7252a1f1-e96d-4056-b2fa-64ea38c28310	Mogielnica	51°41'40''	20°43'23''	426740.47	619052.48	POL	mazowieckie	grójecki	
5dfabea7-e29b-4036-9ae5-80a2a0031ecb	Mogilno	52°39'28''	17°56'60''	532963.71	428995.94	POL	kujawsko-pomorskie	mogileński	
e2bc3a26-cfe5-425a-8f1a-79203f3310c5	Mońki	53°24'18''	22°47'58''	622273.87	752460.42	POL	podlaskie	moniecki	
5c210ec8-f3b3-48eb-b81a-b219444e89d9	Morawica	50°44'42''	20°37'13''	321046.62	614279.88	POL	świętokrzyskie	kielecki	
d80cd572-5513-4f9f-a416-7d6dc7915dec	Morąg	53°54'58''	19°55'45''	672803.6	561000.81	POL	warmińsko-mazurskie	ostródzki	
b639e03b-7e73-44a5-90ce-8f0768dd4a6e	Mordy	52°12'39''	22°31'00''	488583.31	740175.75	POL	mazowieckie	siedlecki	
212a4764-2ab1-414b-9e70-759d18f136ca	Moryń	52°51'27''	14°23'55''	564596.49	190361.64	POL	zachodniopomorskie	gryfiński	
757ae84d-8250-4b53-b553-e4a242d50bed	Mosina	52°14'40''	16°51'02''	488677.21	353301.6	POL	wielkopolskie	poznański	
2bf12819-222c-42d4-9c50-74e2cf92e6d3	Mrągowo	53°52'36''	21°18'15''	670468.71	651424.74	POL	warmińsko-mazurskie	mrągowski	
35c24d54-fdaa-4a3a-b0a6-d04fe90cb7ba	Mrocza	53°14'44''	17°36'25''	598714.75	407076.27	POL	kujawsko-pomorskie	nakielski	
79d63d0f-1265-407d-9f25-78eaf8229bb2	Mrozy	52°09'57''	21°48'09''	481440.89	691614.79	POL	mazowieckie	miński	
76f32111-0f81-4c5c-afa4-d78efa68ee6f	Mszana Dolna	49°40'41''	20°04'57''	201738.55	578063.8	POL	małopolskie	limanowski	
263eb91d-1d3b-467d-b4a3-b039c83808ff	Mszczonów	51°58'20''	20°31'14''	457312.28	604423.89	POL	mazowieckie	żyrardowski	
7dd32d43-c1e6-4539-9ab4-49e8908d7fe2	Murowana Goślina	52°34'33''	17°00'34''	525200.53	365149.44	POL	wielkopolskie	poznański	
f713be9b-3bf7-43e6-9012-5091235c0db0	Muszyna	49°21'17''	20°53'45''	166987.14	637642.95	POL	małopolskie	nowosądecki	
bd7e24a2-97ac-4d11-98ad-b9641307e729	Mysłowice	50°14'42''	19°08'07''	264210.29	509642.63	POL	śląskie	m. Mysłowice	
3bccb3a2-8d4f-4406-bd7f-c70f7043d38e	Myszków	50°34'26''	19°19'24''	300809.94	522888.45	POL	śląskie	myszkowski	
f77efde6-3cf3-4d1d-bf89-deab95d2425e	Myszyniec	53°22'56''	21°20'41''	615584	655902.54	POL	mazowieckie	ostrołęcki	
cd92543f-e2d4-4f10-93de-24c3959d0afb	Myślenice	49°50'02''	19°56'17''	218918.43	567438.72	POL	małopolskie	myślenicki	
05c3ffee-a156-4fe5-bda2-635b16cd5d77	Myślibórz	52°55'30''	14°52'04''	570174.03	222351.37	POL	zachodniopomorskie	myśliborski	
e48fa512-9055-46db-a4e3-ce8205b3b448	Nakło nad Notecią	53°08'19''	17°36'17''	586828.87	406694.88	POL	kujawsko-pomorskie	nakielski	
f8a03ce9-952c-483a-a3db-45aba8667b17	Nałęczów	51°17'16''	22°12'55''	385031.7	724123.39	POL	lubelskie	puławski	
a992e0fc-9ed5-470b-8c20-57ea11f16286	Namysłów	51°04'36''	17°43'02''	357430.75	410171.57	POL	opolskie	namysłowski	
35ebed52-8c54-435d-a72f-950fd3641280	Narol	50°20'57''	23°19'33''	284728.86	807622.14	POL	podkarpackie	lubaczowski	
acfe19e8-195f-4716-9af6-3b9e51f30b69	Nasielsk	52°35'32''	20°48'10''	526687.21	622079.95	POL	mazowieckie	nowodworski	
328d4d27-6427-48e7-9d0d-86ba54686269	Nekla	52°21'52''	17°24'45''	501017.84	391933.47	POL	wielkopolskie	wrzesiński	
fe621cea-3b0d-43d1-bb21-d3a5a02277ec	Nidzica	53°21'35''	20°25'33''	611472.25	594864.68	POL	warmińsko-mazurskie	nidzicki	
72c32d96-fa05-48ed-b63e-3887589e6de2	Niemcza	50°43'00''	16°50'06''	318873.36	347214.63	POL	dolnośląskie	dzierżoniowski	
7ac2e134-6499-4b80-ab85-28a4961fec81	Niemodlin	50°38'32''	17°37'10''	309268.57	402415.43	POL	opolskie	opolski	
f6acf8da-e53e-4362-8ea0-64926327a62b	Niepołomice	50°01'59''	20°12'59''	241351.18	587087.97	POL	małopolskie	wielicki	
244a7cff-047f-48ed-ac13-872ca7d12c94	Nieszawa	52°50'03''	18°54'09''	552062.36	493424.48	POL	kujawsko-pomorskie	aleksandrowski	
d6f83162-1c8c-4b8f-936b-cd7cafcae6a2	Nisko	50°31'07''	22°08'35''	299347.06	722726.7	POL	podkarpackie	niżański	
c7794de8-b33b-4bf4-9ff6-35c6859bcb0c	Nowa Dęba	50°24'54''	21°45'10''	286718.68	695507.33	POL	podkarpackie	tarnobrzeski	
f6c70b07-eb9d-4a28-8d63-4678aa8d3cae	Nowa Ruda	50°34'44''	16°30'09''	304284.07	323226.8	POL	dolnośląskie	kłodzki	
90bb3d11-1f33-4e36-a710-a70dbcf244c0	Nowa Sarzyna	50°19'12''	22°20'37''	277892.09	737929.91	POL	podkarpackie	leżajski	
35078992-10d0-4ad0-bfa2-82375e1c0814	Nowa Słupia	50°51'50''	21°05'24''	335068.31	647026.75	POL	świętokrzyskie	kielecki	
3d112dbd-7390-40bf-bdd8-0d3ca4be9025	Nowa Sól	51°48'21''	15°42'59''	442819.1	273701.38	POL	lubuskie	nowosolski	
9a9b33b9-488b-4283-9c46-088b06aa1261	Nowe	53°38'56''	18°43'34''	642696.04	481908.14	POL	kujawsko-pomorskie	świecki	
a8b28d72-3f72-471b-8bf8-a5e500922be1	Nowe Brzesko	50°07'52''	20°22'28''	252445.89	598203.12	POL	małopolskie	proszowicki	
c45ad2a1-800e-4675-bb84-e130727ecbd7	Nowe Miasteczko	51°41'26''	15°43'50''	429961.16	274108.84	POL	lubuskie	nowosolski	
63b9e906-fbe4-4d5e-a4cc-224e0fcabf99	Nowe Miasto Lubawskie	53°25'26''	19°35'32''	617820.14	539346.52	POL	warmińsko-mazurskie	nowomiejski	
c5ba1994-a794-46a0-94d4-f2f26a3d54bd	Nowe Miasto nad Pilicą	51°37'05''	20°34'53''	418026.53	609448.67	POL	mazowieckie	grójecki	
6f665596-e7f8-42ad-b4be-35d3c5764eec	Nowe Skalmierzyce	51°42'31''	17°59'30''	427406.87	430350.18	POL	wielkopolskie	ostrowski	
86ec4f50-320f-4028-845c-a2cbcf286f32	Nowe Warpno	53°43'22''	14°17'17''	661197.04	189285.65	POL	zachodniopomorskie	policki	
c09b6115-319c-4c1b-a664-98ee9b4f53e7	Nowogard	53°40'06''	15°07'28''	651801.97	244075.6	POL	zachodniopomorskie	goleniowski	
538ffd91-8c00-4a8b-9ca3-9f6bdc14a35b	Nowogrodziec	51°11'50''	15°23'53''	376205.45	248435.59	POL	dolnośląskie	bolesławiecki	
929d32ea-6e9c-4fc6-bfef-6bb5226ef76b	Nowogród	53°13'34''	21°52'45''	599522.21	692130.43	POL	podlaskie	łomżyński	
0b54bede-f2db-4a62-91c2-494aef7982d9	Nowogród Bobrzański	51°48'04''	15°14'49''	443866.13	241327.85	POL	lubuskie	zielonogórski	
5813fef5-27cb-431f-b6ef-f140f1240aaf	Nowy Dwór Gdański	54°12'50''	19°07'02''	705522.89	507642.12	POL	pomorskie	nowodworski	
c6905445-ee64-4134-8c3a-175c926821b8	Nowy Dwór Mazowiecki	52°25'50''	20°42'59''	508569.36	616657.76	POL	mazowieckie	nowodworski	
d7d4098b-6a74-43b1-8dc9-00bd8e7e243a	Nowy Korczyn	50°17'59''	20°48'29''	271844.83	628728.79	POL	świętokrzyskie	buski	
64bfc661-6b4c-4cb4-9c1f-3a1ebfcc221b	Nowy Sącz	49°37'30''	20°41'26''	196660.17	622057.36	POL	małopolskie	m. Nowy Sącz	
df2a9064-81c9-4f3c-85f0-20042b60e004	Nowy Staw	54°08'05''	19°00'29''	696710.85	500526.17	POL	pomorskie	malborski	
f304559b-d8ac-487e-8a14-ae6883fd7139	Nowy Targ	49°28'39''	20°01'55''	179408.15	574741.66	POL	małopolskie	nowotarski	
c9a4d6da-4ea8-4b6f-8900-5330395ebf38	Nowy Tomyśl	52°18'60''	16°07'57''	498390.67	304620.22	POL	wielkopolskie	nowotomyski	
e34d3f7e-6a40-4ee0-9e1d-a3d56dc938ae	Nowy Wiśnicz	49°54'55''	20°27'43''	228562.67	604932.99	POL	małopolskie	bocheński	
03ef41e5-f81a-4932-9c11-4aa587433094	Nysa	50°28'25''	17°19'58''	290945.87	381723.42	POL	opolskie	nyski	
fcb86eca-6b0f-4f85-b0d1-1733a10f9bad	Oborniki	52°38'45''	16°48'32''	533375.93	351807.28	POL	wielkopolskie	obornicki	
658e0543-4dff-44e4-a5d2-553f7d5d082d	Oborniki Śląskie	51°17'58''	16°54'50''	383489.23	354618.55	POL	dolnośląskie	trzebnicki	
793fbfad-7dc1-492e-9e6b-64c626144360	Obrzycko	52°42'29''	16°31'37''	540918.1	332971.16	POL	wielkopolskie	szamotulski	
c4cca7de-e265-4f2b-a84c-998d1ecb7693	Odolanów	51°34'27''	17°40'25''	412783.37	408112.88	POL	wielkopolskie	ostrowski	
f665a1ed-0384-4097-ab40-9e97d3682491	Ogrodzieniec	50°27'05''	19°31'18''	287272.79	537023.9	POL	śląskie	zawierciański	
c8ccdbf6-a5f2-4e2d-97ce-88f286c88c48	Okonek	53°32'07''	16°50'59''	632174.79	357537.67	POL	wielkopolskie	złotowski	
e5a2471c-4ef1-45bb-bf04-cce9801d1616	Olecko	54°02'16''	22°30'10''	691616.4	729277.04	POL	warmińsko-mazurskie	olecki	
3c9f831d-3063-447c-b411-8322dca77555	Olesno	50°52'36''	18°25'18''	334570.51	459332.44	POL	opolskie	oleski	
118e96b6-c4c3-4678-9f02-49b02124197f	Oleszyce	50°10'05''	23°01'54''	263432.71	787796.72	POL	podkarpackie	lubaczowski	
e05ead86-3759-4ea5-ba0f-e888e0a55c64	Oleśnica	51°12'34''	17°22'49''	372668.05	386897.76	POL	dolnośląskie	oleśnicki	
83577342-f975-449c-ad52-88fd81c6e599	Oleśnica	50°27'02''	21°03'50''	289074.88	646484.99	POL	świętokrzyskie	staszowski	
dd88a8af-0bda-450d-a244-079e636c7fcc	Olkusz	50°16'44''	19°33'36''	268127.55	539891.83	POL	małopolskie	olkuski	
21b9272c-1669-4b8d-8b80-9614ad83367b	Olsztyn	53°46'44''	20°28'48''	658152.32	597492.05	POL	warmińsko-mazurskie	m. Olsztyn	
cadfee4b-3e45-4159-8d00-a5b401228092	Olsztynek	53°34'60''	20°17'07''	636150.25	585057.16	POL	warmińsko-mazurskie	olsztyński	
5e7c29a4-bf09-4fb6-9134-d9c140a50cb4	Olszyna	51°04'01''	15°22'42''	361826.15	246342.44	POL	dolnośląskie	lubański	
f120dcc3-8aa9-4575-b098-465b4a54eca5	Oława	50°56'26''	17°17'55''	342906.94	380507.73	POL	dolnośląskie	oławski	
35a14c27-8d3c-4f13-a1f6-96d974a40460	Opalenica	52°18'27''	16°24'47''	496650.42	323693.48	POL	wielkopolskie	nowotomyski	
6833e90f-4ce8-405d-8ee6-614f2f7c8089	Opatowiec	50°14'30''	20°43'26''	265257.34	622883.02	POL	świętokrzyskie	kazimierski	
8f1b9018-9ef3-4543-83c8-0e68ff6a46bf	Opatów	50°48'05''	21°25'26''	328849.65	670746.94	POL	świętokrzyskie	opatowski	
f5455e16-2ad3-4b64-85b9-64e5022eb07f	Opatówek	51°44'22''	18°12'51''	430642.6	445750.75	POL	wielkopolskie	kaliski	
1a967f74-7797-4ca8-9eb5-155f14fc705b	Opoczno	51°22'34''	20°16'59''	390721.19	589272.83	POL	łódzkie	opoczyński	
735b8b96-5bab-4ca9-81dc-81fb86ea8314	Opole	50°40'07''	17°55'20''	311846.17	423863.31	POL	opolskie	m. Opole	
24f81fec-f7be-49a2-9aba-2532aec78079	Opole Lubelskie	51°08'50''	21°58'09''	368698.64	707594.5	POL	lubelskie	opolski	
bf5e2202-1b8a-419e-9500-c6cbd4677489	Orneta	54°06'59''	20°07'52''	695262.76	573913.15	POL	warmińsko-mazurskie	lidzbarski	
d473be03-ea65-43e4-b340-f1a8bded1544	Orzesze	50°08'40''	18°46'34''	253047.81	484007.47	POL	śląskie	mikołowski	
e9ec1eaa-4ad0-42fe-b7ba-fa66117635b6	Orzysz	53°48'31''	21°56'47''	664472.2	693940.91	POL	warmińsko-mazurskie	piski	
bec61f0c-bb44-46c7-af8d-7cbdeb4ea622	Osieczna	51°54'16''	16°40'39''	451221.79	340285.14	POL	wielkopolskie	leszczyński	
317e2513-947b-41c2-8c2e-6c8fc122ba86	Osiek	50°31'12''	21°26'34''	297618.74	673109.25	POL	świętokrzyskie	staszowski	
d626c043-ba8f-4e0d-8cb6-d3bc42b517b9	Ostrołęka	53°04'53''	21°34'21''	582651.75	672248.81	POL	mazowieckie	m. Ostrołęka	
c1e9d180-fd15-4fd1-ab2e-5374166d681b	Ostroróg	52°37'36''	16°27'03''	532048.36	327520.06	POL	wielkopolskie	szamotulski	
c780aa24-c795-42ad-8af0-fdbbd504fb95	Ostrowiec Świętokrzyski	50°56'38''	21°23'24''	344616.8	667839.09	POL	świętokrzyskie	ostrowiecki	
fe94aafc-9fe3-4e71-92ec-df4af8332369	Ostróda	53°41'58''	19°57'50''	648732.81	563622.98	POL	warmińsko-mazurskie	ostródzki	
a6ba979b-90d3-4b6e-8066-1ec3be164c53	Ostrów Lubelski	51°29'41''	22°51'15''	410161.98	767439.46	POL	lubelskie	lubartowski	
b0c19c88-c751-409e-98e1-53a972100168	Ostrów Mazowiecka	52°48'21''	21°53'52''	552850.36	695261.26	POL	mazowieckie	ostrowski	
2ee36140-08a4-48b9-8e61-09ca801096a7	Ostrów Wielkopolski	51°38'58''	17°49'00''	421005.74	418160.97	POL	wielkopolskie	ostrowski	
b6d17156-b57b-42c7-9137-ba1a5ace28ae	Ostrzeszów	51°25'25''	17°55'53''	395770.02	425730.27	POL	wielkopolskie	ostrzeszowski	
2e6f4b69-0fb6-4017-8d1b-7008f2c8c3bc	Ośno Lubuskie	52°27'14''	14°52'16''	517798.15	219573.86	POL	lubuskie	słubicki	
6cc22ed1-9559-4b99-a98a-90cf7a49c278	Oświęcim	50°02'17''	19°13'15''	241213.37	515812.27	POL	małopolskie	oświęcimski	
8ba17c5e-cdf0-493d-9f88-c6a0093810a6	Otmuchów	50°27'55''	17°10'21''	290287.67	370339.72	POL	opolskie	nyski	
967092ac-d6c0-42eb-8d37-01f3915a4480	Otwock	52°06'26''	21°15'56''	473651.82	655103.3	POL	mazowieckie	otwocki	
2348b6a8-48ac-4c71-8212-2b90e1a7ea78	Otyń	51°50'50''	15°42'37''	447427.02	273479.51	POL	lubuskie	nowosolski	
5890109b-e6e0-48c7-b1fd-071ca75ac533	Ozimek	50°40'44''	18°12'49''	312713.31	444462.76	POL	opolskie	opolski	
fabb2a35-aebd-48cb-9f0e-a94a6e24c284	Ozorków	51°57'44''	19°17'42''	455145.04	520256.52	POL	łódzkie	zgierski	
30241f85-d7e4-4604-a762-fd9e0bb5a35f	Ożarów	50°53'10''	21°39'55''	338853.94	687402.88	POL	świętokrzyskie	opatowski	
4376bbc0-5bad-48e2-a7f5-a59110788e10	Ożarów Mazowiecki	52°12'38''	20°47'39''	484224.63	622541.38	POL	mazowieckie	warszawski zachodni	
341b28a1-7829-4af3-956d-a019f6bb8c53	Pabianice	51°39'54''	19°21'33''	422122.86	524833.12	POL	łódzkie	pabianicki	
48d2b05a-6bf0-4446-821f-5fbf89686314	Pacanów	50°23'59''	21°02'28''	283395.09	645016.72	POL	świętokrzyskie	buski	
bf702b2c-22ce-4b2f-b276-48c4d1553b9f	Paczków	50°27'51''	17°00'23''	290474.87	358552.01	POL	opolskie	nyski	
9e3b52ab-8e4a-4777-92f6-ddec049a88c8	Pajęczno	51°08'49''	18°59'42''	364465.35	499650.37	POL	łódzkie	pajęczański	
2fad3fd4-f0f3-49c9-9ad8-a05b48ac20f9	Pakość	52°48'25''	18°05'16''	549435.78	438521.1	POL	kujawsko-pomorskie	inowrocławski	
2c69586c-46bd-4181-962c-a197f846a088	Parczew	51°38'26''	22°54'00''	426562.87	769754.86	POL	lubelskie	parczewski	
a19248f4-3118-440a-82c3-a3604f9efae2	Pasłęk	54°03'55''	19°39'31''	689193.53	543099.85	POL	warmińsko-mazurskie	elbląski	
812ef386-22bf-4c65-a566-891024986ba6	Pasym	53°39'01''	20°47'31''	644334.68	618393.74	POL	warmińsko-mazurskie	szczycieński	
f9fd63bb-6b0d-4059-a9f6-dd372812592f	Pelplin	53°55'42''	18°41'51''	673787.35	480140.21	POL	pomorskie	tczewski	
9a254a3a-8ee2-46b6-bc27-cdcc25e4b67b	Pełczyce	53°02'38''	15°18'15''	581772.41	252337.73	POL	zachodniopomorskie	choszczeński	
d80de819-6af0-4bd0-855d-66fbd1d1017b	Piaseczno	52°04'11''	21°01'37''	468999.71	638885.8	POL	mazowieckie	piaseczyński	
f6e1738c-d920-4126-9622-a47fe21a4994	Piaski	51°08'15''	22°50'54''	370458.92	769115.73	POL	lubelskie	świdnicki	
641b23aa-ceea-4ea8-878f-826a7133ffc1	Piastów	52°10'59''	20°50'30''	481261.7	625871.92	POL	mazowieckie	pruszkowski	
6a8e2cb6-60a0-439f-9abf-8692031d0035	Piątek	52°04'08''	19°28'47''	467067.81	532872.47	POL	łódzkie	łęczycki	
05f82c6a-4955-4086-bc90-cd83f3fcef47	Piechowice	50°50'59''	15°35'57''	336938.88	260703.27	POL	dolnośląskie	jeleniogórski	
2783782c-f638-4858-83d6-c71aa08759ea	Piekary Śląskie	50°23'02''	18°56'41''	279641.04	496071.22	POL	śląskie	m. Piekary Śląskie	
cb58e872-a73f-4cbf-a8ad-aae719774f25	Pieniężno	54°14'20''	20°07'29''	708871.52	573278	POL	warmińsko-mazurskie	braniewski	
fadc1b7d-1455-44a9-8d49-1764fa5a4ed8	Pieńsk	51°14'48''	15°02'44''	382967.05	224125.58	POL	dolnośląskie	zgorzelecki	
be045ee3-aadc-43e8-aa1e-ad40d6acf008	Pierzchnica	50°41'51''	20°45'14''	315954.53	623821.64	POL	świętokrzyskie	kielecki	
6fa8244f-bf14-42b5-8feb-e42f22cb4822	Pieszyce	50°42'44''	16°34'49''	318933.69	329231.98	POL	dolnośląskie	dzierżoniowski	
98d3d118-e738-414c-895c-41479785f096	Pilawa	51°57'36''	21°31'56''	457889.52	673927.53	POL	mazowieckie	garwoliński	
16b0c121-b808-4c12-9805-aa42438d8b4f	Pilica	50°28'04''	19°39'26''	289165.8	546628.61	POL	śląskie	zawierciański	
6716fe41-eaee-4262-82a7-7e90d8c9bfba	Pilzno	49°58'40''	21°17'27''	237012.76	664196.17	POL	podkarpackie	dębicki	
ed01ce43-05ef-4079-a3c3-8df06e32d85b	Piła	53°08'51''	16°44'22''	589304.09	348873.61	POL	wielkopolskie	pilski	
855f3c01-2496-4549-b2dd-962996466aa8	Piława Górna	50°40'54''	16°45'14''	315135.41	341374.95	POL	dolnośląskie	dzierżoniowski	
1dce4999-a287-4a7a-b493-9a0501086817	Pińczów	50°31'12''	20°31'36''	295888.79	608189.73	POL	świętokrzyskie	pińczowski	
bc008fae-c326-49df-ae38-a4d92a200735	Pionki	51°28'43''	21°27'09''	404179.57	670260.77	POL	mazowieckie	radomski	
670f6415-1817-48b7-8c4c-37a1961de98a	Piotrków Kujawski	52°33'04''	18°29'51''	520709.22	465942.82	POL	kujawsko-pomorskie	radziejowski	
97a3223c-46ca-4e94-8b1c-f8de723e095e	Piotrków Trybunalski	51°24'40''	19°41'10''	394057.52	547702.87	POL	łódzkie	m. Piotrków Trybunalski	
1f7ff2e2-606a-4705-9a45-6fa40dc95402	Pisz	53°37'48''	21°48'22''	644226.35	685480.82	POL	warmińsko-mazurskie	piski	
eef33e41-67b3-4d71-8b83-0b70eb47fe99	Piwniczna-Zdrój	49°26'28''	20°42'58''	176256.19	624368.76	POL	małopolskie	nowosądecki	
ddc4154e-ee14-4892-a1e8-a9a49d829e1d	Pleszew	51°53'47''	17°47'09''	448472.44	416474	POL	wielkopolskie	pleszewski	
364268be-78a4-42e5-bcec-74c1ea7a90e0	Płock	52°32'27''	19°41'23''	519670.38	546762.74	POL	mazowieckie	m. Płock	
1aaf568b-5b5c-4b4a-8768-b04f76ad26c9	Płońsk	52°37'20''	20°22'26''	529383.46	592974.77	POL	mazowieckie	płoński	
31cb2161-940b-4bf2-9d32-248b77e6a2ea	Płoty	53°48'16''	15°16'05''	666429.95	254361.44	POL	zachodniopomorskie	gryficki	
fe685272-df47-4ab2-b2bf-2c485e0290cc	Pniewy	52°30'29''	16°15'19''	519328.34	313787.9	POL	wielkopolskie	szamotulski	
b1a891bc-d409-4d0d-ac17-31eb90e7cda7	Pobiedziska	52°28'39''	17°17'06''	513772.39	383557.09	POL	wielkopolskie	poznański	
1ce110fc-988b-4fe8-95fc-b2196557db76	Poddębice	51°53'35''	18°57'18''	447415.52	496904.36	POL	łódzkie	poddębicki	
dbffc893-7dd3-41ee-9841-d3914f0e3279	Podkowa Leśna	52°07'24''	20°43'39''	474429.75	618227.74	POL	mazowieckie	grodziski	
7895bc41-bcb6-4730-9fbe-fa1645369187	Pogorzela	51°49'21''	17°13'49''	441047.72	378073.79	POL	wielkopolskie	gostyński	
d7c93179-f19b-41eb-bc44-7018b64010a6	Polanica-Zdrój	50°24'12''	16°30'41''	284746.52	323201.17	POL	dolnośląskie	kłodzki	
1e183986-14ff-405c-9bba-2d7cdf235cb7	Polanów	54°07'07''	16°41'03''	697391.66	348693.85	POL	zachodniopomorskie	koszaliński	
f28385ec-2d9d-4c6e-bd2e-8328874cc665	Police	53°33'09''	14°34'19''	641065.58	206820.4	POL	zachodniopomorskie	policki	
41297ffc-6d5f-468e-84f6-bdd0c6c8d740	Polkowice	51°30'12''	16°04'06''	408155.92	296596.4	POL	dolnośląskie	polkowicki	
420957e3-3030-461a-80f5-01140cff036f	Połaniec	50°25'57''	21°16'50''	287523.28	661910.63	POL	świętokrzyskie	staszowski	
6bdd2f6d-1ec4-4fe6-9fd9-5c824cbed68e	Połczyn-Zdrój	53°46'01''	16°05'27''	659737.16	308327.33	POL	zachodniopomorskie	świdwiński	
69a13fd3-7f21-46ce-a1ae-42d8674b7264	Poniatowa	51°11'24''	22°04'03''	373730.85	714278.69	POL	lubelskie	opolski	
0fea355b-3464-4159-821e-40f132619c51	Poniec	51°45'53''	16°48'24''	435417.9	348686.11	POL	wielkopolskie	gostyński	
6b461628-1dcb-44c9-a669-66a7e9bfd328	Poręba	50°29'19''	19°20'26''	291335.83	524151.09	POL	śląskie	zawierciański	
1174ac19-6c41-4b06-ba15-b5fc0adf1778	Poznań	52°24'29''	16°56'00''	506675.45	359474.49	POL	wielkopolskie	m. Poznań	
39c0ed87-4e59-44c4-a277-d3a21ec48bfb	Prabuty	53°45'32''	19°11'56''	654926.69	513108.35	POL	pomorskie	kwidzyński	
0e301efd-5402-4a5d-abe7-7f374493173d	Praszka	51°03'14''	18°27'11''	354249.62	461682.51	POL	opolskie	oleski	
7db59c2b-6669-4d08-b015-6fcabc517a26	Prochowice	51°16'23''	16°21'44''	381805.1	316066.31	POL	dolnośląskie	legnicki	
4fba4e4f-bedf-4ed1-aeb1-6a45f5e870d8	Proszowice	50°11'33''	20°17'24''	259161.3	592051.49	POL	małopolskie	proszowicki	
46350124-ff7e-462f-9b5b-7558c4138a50	Prószków	50°34'36''	17°52'17''	301678.72	420110.91	POL	opolskie	opolski	
5cb277f2-5b98-4ac8-b635-4ec71384f2a3	Pruchnik	49°54'19''	22°30'49''	232372.33	752210.67	POL	podkarpackie	jarosławski	
e24bf155-9f1d-4765-b2d4-8177ad03097a	Prudnik	50°19'17''	17°34'50''	273666.53	398988.12	POL	opolskie	prudnicki	
5459c0a0-0bb4-4e62-97c4-92848aab5a94	Prusice	51°22'16''	16°57'37''	391350.28	358067.1	POL	dolnośląskie	trzebnicki	
1229b98e-4391-4004-a4c2-4dfb597ea3b2	Pruszcz Gdański	54°15'44''	18°38'10''	710962.44	476313.14	POL	pomorskie	gdański	
c655df54-3002-411a-b01e-2df6c503c17c	Pruszków	52°10'12''	20°48'18''	479747.18	623402.21	POL	mazowieckie	pruszkowski	
d7b4fcbe-dc2a-4c8a-a181-42f9f94ad029	Przasnysz	53°01'18''	20°52'56''	574579.82	626202.91	POL	mazowieckie	przasnyski	
2da94171-d907-4cfa-9c3f-47d72b5ebca3	Przecław	50°11'39''	21°28'47''	261492.87	676934.64	POL	podkarpackie	mielecki	
dfd3f5bf-f9d3-454f-ad1e-7789ad3d7c4c	Przedbórz	51°05'15''	19°52'26''	358219.78	561186.48	POL	łódzkie	radomszczański	
f0c3b149-9388-4b9c-8e10-a8f37777b016	Przedecz	52°19'60''	18°54'02''	496370.81	493235.05	POL	wielkopolskie	kolski	
98d334f7-f9c9-45da-a05e-8480d6218f16	Przemków	51°31'41''	15°47'18''	411725.02	277299.47	POL	dolnośląskie	polkowicki	
ca59e0ed-a40e-40f1-9505-0073569fdcdc	Przemyśl	49°46'57''	22°46'27''	219618.69	771582.14	POL	podkarpackie	m. Przemyśl	
07ec5205-efd2-4f36-83b6-dceeea741ebb	Przeworsk	50°03'32''	22°29'38''	249348.6	749984.56	POL	podkarpackie	przeworski	
ca609d43-8a98-4155-9c54-2d18cfd03916	Przysucha	51°21'32''	20°37'43''	389286.83	613357.74	POL	mazowieckie	przysuski	
5feb02e1-8c6d-44af-882a-7446195c3a4e	Pszczyna	49°58'41''	18°56'30''	234530.13	495818.63	POL	śląskie	pszczyński	
5b600321-e26d-4ac8-8093-c368df8c28d4	Pszów	50°02'15''	18°23'46''	241311.35	456768.04	POL	śląskie	wodzisławski	
1d10a9df-a5a6-45fe-9878-1804be7c5681	Puck	54°43'05''	18°24'33''	761758.05	461952.35	POL	pomorskie	pucki	
eabb5caf-15ac-44b8-bf0e-4b1664684e11	Puławy	51°25'00''	21°58'04''	398631.3	706290.1	POL	lubelskie	puławski	
484df224-c79f-4e21-88b0-9d9108dcaa56	Pułtusk	52°42'14''	21°05'14''	539634.93	640976.67	POL	mazowieckie	pułtuski	
67c192c1-35d1-4076-bde7-25d37173fa72	Puszczykowo	52°17'05''	16°51'16''	493137.43	353693.14	POL	wielkopolskie	poznański	
29baa416-d172-477d-afcd-38c695261d39	Pyrzyce	53°08'45''	14°53'33''	594609.23	225420.49	POL	zachodniopomorskie	pyrzycki	
45ff9a88-ad35-4a03-a6ba-f3297db25c07	Pyskowice	50°23'52''	18°37'39''	281249.74	473532.91	POL	śląskie	gliwicki	
eac9bad7-5c99-4d00-a914-ad159da26ccd	Pyzdry	52°10'01''	17°41'13''	478697.55	410219.66	POL	wielkopolskie	wrzesiński	
28320280-74fa-437b-88ff-b2709008a2cc	Rabka-Zdrój	49°36'36''	19°57'10''	194059.61	568810.84	POL	małopolskie	nowotarski	
d4761612-d6c1-4f2d-9d72-0958ff04c79e	Raciąż	52°46'52''	20°07'10''	546753.55	575481.78	POL	mazowieckie	płoński	
adbc291c-3844-49f5-abe8-ff81e2e0d6ed	Racibórz	50°05'27''	18°13'12''	247356	444222.12	POL	śląskie	raciborski	
1a37accc-6ed2-4d1f-88b8-88029c61d5f0	Radków	50°30'14''	16°24'03''	296210.79	315741.2	POL	dolnośląskie	kłodzki	
0d1188fe-1472-4f46-901e-ba3b8874b756	Radlin	50°02'48''	18°27'17''	242306.86	460963.65	POL	śląskie	wodzisławski	
fd70fd75-4612-49ec-bf40-73a8c6885cee	Radłów	50°04'59''	20°50'52''	247834.89	632152.86	POL	małopolskie	tarnowski	
cc375814-c35e-4a5f-afdf-3176ada5c7f4	Radom	51°24'03''	21°09'12''	394891.15	649740.18	POL	mazowieckie	m. Radom	
cc599658-1dd3-4dbc-a03a-2d166e58693c	Radomsko	51°04'03''	19°26'40''	355727.27	531131.6	POL	łódzkie	radomszczański	
a8631c9c-4004-4164-8085-821365f552e7	Radomyśl Wielki	50°11'44''	21°16'31''	261181.99	662343.72	POL	podkarpackie	mielecki	
ac1c4695-dace-4221-ab58-d977f8615278	Radoszyce	51°04'28''	20°15'18''	357144.7	587898.74	POL	świętokrzyskie	konecki	
1c7e7dc6-ce7d-41ab-9382-f81a5df2f1e3	Radymno	49°56'49''	22°49'27''	238093.11	774242.39	POL	podkarpackie	jarosławski	
72ffa0ef-dac9-4d16-bc7f-379c51d8f4fc	Radziejów	52°37'23''	18°31'38''	528689.74	468002.25	POL	kujawsko-pomorskie	radziejowski	
b13b30c5-fab0-4eb6-9a27-7160f83b5946	Radzionków	50°24'01''	18°54'12''	281465.81	493131.93	POL	śląskie	tarnogórski	
9da97451-b3f6-40e8-abfe-2a29941d4255	Radzymin	52°25'06''	21°10'52''	508056.44	648288.25	POL	mazowieckie	wołomiński	
371e851a-d91e-4f4f-9648-8368a1f2b65d	Radzyń Chełmiński	53°23'06''	18°56'10''	613317.32	495752.97	POL	kujawsko-pomorskie	grudziądzki	
d715f6eb-172d-4c2e-9b2d-567c87fd446e	Radzyń Podlaski	51°47'06''	22°37'09''	441603.58	749523.89	POL	lubelskie	radzyński	
b0184a82-af54-4927-80bb-ed5656e9d18a	Rajgród	53°43'51''	22°41'54''	658137.17	743861.21	POL	podlaskie	grajewski	
f2164f8c-ddb1-4e9b-a486-30d4d7cb2782	Rakoniewice	52°08'19''	16°16'24''	478228.73	313463.71	POL	wielkopolskie	grodziski	
46b83ad7-ba89-4506-91bf-1b7f10a4159a	Raszków	51°43'06''	17°43'34''	428772.51	412018.31	POL	wielkopolskie	ostrowski	
fbb20448-eeff-4dfd-a497-15e7aaf0bcb8	Rawa Mazowiecka	51°45'54''	20°15'08''	433921.62	586387.82	POL	łódzkie	rawski	
627d21fc-7999-4f4b-b53b-5c1d898d67b8	Rawicz	51°36'34''	16°51'30''	418051.5	351752.53	POL	wielkopolskie	rawicki	
0d475aec-7bd8-4c0d-8b2c-1bdd98dc3578	Recz	53°15'35''	15°32'47''	604964.85	269736.17	POL	zachodniopomorskie	choszczeński	
8a2aab70-2e6e-45ad-b864-db85c1cdb400	Reda	54°36'12''	18°20'57''	749030.87	457970.35	POL	pomorskie	wejherowski	
87b066d5-21d9-48cb-a3ec-6d6efac21e9f	Rejowiec	51°05'39''	23°16'60''	367325.74	799802.04	POL	lubelskie	chełmski	
97cc396d-2393-4a11-b5af-121b2d8bfce9	Rejowiec Fabryczny	51°07'17''	23°14'36''	370183.72	796836.16	POL	lubelskie	chełmski	
a2c1bab7-b2cc-49f3-bc3c-d822ad2f55bc	Resko	53°46'21''	15°24'24''	662413.16	263294.08	POL	zachodniopomorskie	łobeski	
1147ac0c-36d8-4f5a-940f-a62425d12976	Reszel	54°03'02''	21°08'43''	689463.07	640407.11	POL	warmińsko-mazurskie	kętrzyński	
c9a857bd-c1cb-4370-881d-24d7b25e9108	Rogoźno	52°45'08''	16°59'30''	544849.27	364497.12	POL	wielkopolskie	obornicki	
df356775-53a4-41ed-b880-a3ce91fe0a2a	Ropczyce	50°03'11''	21°36'39''	246130.18	686837.41	POL	podkarpackie	ropczycko-sędziszowski	
e0579fe6-bed4-469d-b9db-cb79d435fdd9	Różan	52°53'27''	21°23'58''	561063.34	661371.85	POL	mazowieckie	makowski	
b2bc0329-e5ed-40ce-99f9-d58d36300ef0	Ruciane-Nida	53°38'30''	21°32'14''	644871.72	667666.28	POL	warmińsko-mazurskie	piski	
05ea84d5-4331-4d3d-9ffa-1b6a45e79564	Ruda Śląska	50°16'50''	18°51'33''	268162.78	489968.76	POL	śląskie	m. Ruda Śląska	
ad6d5af8-38c8-40b6-b3e9-7d62342e3ecf	Rudnik nad Sanem	50°26'30''	22°14'48''	291096.3	730449.54	POL	podkarpackie	niżański	
b74112d1-5e41-42fa-b61b-c0804b1fb227	Rumia	54°33'51''	18°23'20''	744650.85	460497.74	POL	pomorskie	wejherowski	
3bf20a71-501b-47d0-8eff-5f65ca492899	Rybnik	50°05'41''	18°32'32''	247597.34	467266.8	POL	śląskie	m. Rybnik	
7d292190-327e-4a1d-902a-e69c2af70131	Rychwał	52°04'12''	18°09'59''	467419.17	442872.85	POL	wielkopolskie	koniński	
5f25965f-5655-441f-bb80-568d6a98e151	Rydułtowy	50°03'29''	18°25'04''	243583.73	458336.74	POL	śląskie	wodzisławski	
c57ee548-5554-4396-bc6d-ffd8d6dbbd7c	Rydzyna	51°47'12''	16°40'02''	438162.62	339152.08	POL	wielkopolskie	leszczyński	
defb99b8-1dc5-4bbf-9218-f077f165ccab	Ryglice	49°52'45''	21°08'18''	225729.78	653579.73	POL	małopolskie	tarnowski	
5b710a27-aecf-44bc-b0d6-84f1d15e248b	Ryki	51°37'33''	21°56'03''	421780.88	703018.89	POL	lubelskie	rycki	
b9b105ef-440d-499c-a99c-ce8cef5019c4	Rymanów	49°34'35''	21°52'05''	193837.15	707274.38	POL	podkarpackie	krośnieński	
e39f1c7d-4438-4583-919e-58ffc928d46d	Ryn	53°56'20''	21°32'48''	677916.13	667103.43	POL	warmińsko-mazurskie	giżycki	
a0c5604b-8ee2-44ee-8b30-c374ba6809c5	Rypin	53°03'57''	19°24'47''	577916.43	527669.26	POL	kujawsko-pomorskie	rypiński	
bf89d7cb-f46e-460b-9a44-eb145089d9e2	Rzepin	52°20'54''	14°49'37''	506225.95	215898.06	POL	lubuskie	słubicki	
27dc0ba9-f8bd-4162-9338-7c5d3349a1a4	Rzeszów	50°02'24''	22°00'00''	245725.47	714741.21	POL	podkarpackie	m. Rzeszów	
66676517-f6f8-47e0-b147-f3fbb2a6d56b	Rzgów	51°39'47''	19°29'24''	421957.43	533888.72	POL	łódzkie	łódzki wschodni	
fd66d698-3a1a-44b0-9694-f576960baa04	Sandomierz	50°40'46''	21°44'58''	316089.15	694189.52	POL	świętokrzyskie	sandomierski	
150216e2-a804-4f54-bbad-2dd40be1250e	Sanniki	52°19'55''	19°51'43''	496559.82	558725	POL	mazowieckie	gostyniński	
a7569f7a-1f92-4b59-9f2e-abd64f3d150a	Sanok	49°33'36''	22°12'08''	192976.43	731497.66	POL	podkarpackie	sanocki	
7f8bc2cb-b264-476f-afb1-7387228f9a94	Sejny	54°06'23''	23°20'59''	702306.45	784224.08	POL	podlaskie	sejneński	
f0c0c8fa-ce92-4a57-95b9-fb37e95466d3	Serock	52°30'49''	21°04'14''	518441.82	640455.46	POL	mazowieckie	legionowski	
dc8b006c-0bf9-4f90-acac-dc76c8156b01	Sędziszów	50°33'48''	20°03'07''	300117.15	574482.62	POL	świętokrzyskie	jędrzejowski	
86c7da18-d107-41a4-9677-0b6fa81f6088	Sędziszów Małopolski	50°04'16''	21°42'06''	248364.4	693271.07	POL	podkarpackie	ropczycko-sędziszowski	
c808949f-7baa-4d0d-9ba7-f4584a984503	Sępopol	54°16'05''	21°00'54''	713416.86	631179.68	POL	warmińsko-mazurskie	bartoszycki	
7fb6986e-c3e8-4270-98f2-a44369531557	Sępólno Krajeńskie	53°27'20''	17°32'13''	622183.32	402883.53	POL	kujawsko-pomorskie	sępoleński	
51abefcd-abb9-41ad-92ca-2e5eb0d28997	Sianów	54°13'32''	16°17'49''	710172.46	323840.53	POL	zachodniopomorskie	koszaliński	
bc3e6ec6-2ba2-4b47-be06-a9a5b3d8938d	Siechnice	51°02'01''	17°08'49''	353499.22	370109.51	POL	dolnośląskie	wrocławski	
6dcc32af-8254-4834-9f36-653c55eca403	Siedlce	52°09'57''	22°16'37''	482810.72	724034.35	POL	mazowieckie	m. Siedlce	
626cad6c-c033-437e-9775-749821d59323	Siedliszcze	51°11'43''	23°09'52''	378076.75	790843.97	POL	lubelskie	chełmski	
56e8a3c5-2710-4600-8225-f96d75610227	Siemianowice Śląskie	50°18'09''	19°02'01''	270593.11	502392.94	POL	śląskie	m. Siemianowice Śląskie	
1ca51b8d-843e-438c-9771-a282187c5f47	Siemiatycze	52°25'47''	22°51'54''	514117.9	762656.3	POL	podlaskie	siemiatycki	
e70ea113-48e7-459c-9ed2-3e94790566ae	Sieniawa	50°10'38''	22°36'41''	262910.21	757757.29	POL	podkarpackie	przeworski	
3035cdea-d5a8-49e6-9c92-e3c4d2e03917	Sieradz	51°35'46''	18°43'56''	414436.17	481457.23	POL	łódzkie	sieradzki	
97eeb717-0ff3-4f97-b386-3b4b0270b624	Sieraków	52°38'59''	16°04'56''	535541.15	302685.63	POL	wielkopolskie	międzychodzki	
b2a2a02e-df7b-41e3-bd83-644c56a03fb3	Sierpc	52°51'15''	19°40'07''	554499.19	545008.99	POL	mazowieckie	sierpecki	
3fda8f68-d224-47d8-8d71-e3f2059a8d50	Siewierz	50°28'10''	19°14'11''	289171.43	516768.08	POL	śląskie	będziński	
be292508-ffc7-45a2-8e56-949aa3c3a38d	Skalbmierz	50°19'03''	20°23'52''	273192.12	599483.42	POL	świętokrzyskie	kazimierski	
8743295a-3afb-4474-b1dd-16388e4b5fcc	Skała	50°13'49''	19°51'15''	262922.78	560901.95	POL	małopolskie	krakowski	
889849da-9ac5-459b-9cbf-70341b8543ba	Skarszewy	54°04'16''	18°26'25''	689780.24	463384.2	POL	pomorskie	starogardzki	
6e7f85de-610e-4044-a3a5-6e1e54f478b1	Skaryszew	51°18'37''	21°15'07''	385019.99	656899.98	POL	mazowieckie	radomski	
6cdda433-3242-499c-b7ce-048bd3e8b1f2	Skarżysko-Kamienna	51°06'56''	20°53'43''	362679.54	632609.25	POL	świętokrzyskie	skarżyski	
20cbf7e6-7363-4e13-9012-2df0c2a0a077	Skawina	49°58'30''	19°49'35''	234513.55	559239.75	POL	małopolskie	krakowski	
6860a403-86d1-4c28-8c77-de41f5a664a5	Skępe	52°52'01''	19°21'28''	555759.84	524075.64	POL	kujawsko-pomorskie	lipnowski	
2c72a4db-a0d1-4247-8aa0-9dedcdeeaa68	Skierniewice	51°57'31''	20°08'28''	455322.41	578385.72	POL	łódzkie	m. Skierniewice	
d2cdfa52-6e0d-49be-b1fa-fd47025ced66	Skoczów	49°48'07''	18°47'15''	214976.37	484712.87	POL	śląskie	cieszyński	
11c30cbb-c395-492f-bfbc-4efa54212c3b	Skoki	52°40'24''	17°09'33''	535785.88	375567.59	POL	wielkopolskie	wągrowiecki	
353be3d8-a36b-48e1-ac4f-9490fea5b6f8	Skórcz	53°47'38''	18°31'30''	658905.77	468719.86	POL	pomorskie	starogardzki	
ee7416ee-2595-47aa-bec1-f53d7c34bb96	Skwierzyna	52°35'51''	15°30'12''	531483.34	263266.75	POL	lubuskie	międzyrzecki	
709c0724-008a-49ff-8370-49147eb68b30	Sława	51°52'50''	16°04'18''	450088.04	298515.92	POL	lubuskie	wschowski	
6ea2a0af-f063-43f8-aa18-8ed385d6c4ef	Sławków	50°17'54''	19°23'18''	270199.09	527644.83	POL	śląskie	będziński	
dced7f8f-79d2-4a18-abaa-2af8e1f3c503	Sławno	54°21'29''	16°40'39''	724034.45	349136.73	POL	zachodniopomorskie	sławieński	
6ae4588f-6e1c-4890-9476-e8e698dc5e34	Słomniki	50°14'24''	20°04'56''	264196.83	577139.38	POL	małopolskie	krakowski	
2acc53c5-c05b-4980-a969-0bb0e2f9a20e	Słubice	52°21'22''	14°33'58''	508159.58	198197.14	POL	lubuskie	słubicki	
5475c63c-3c1c-42bb-a925-1a2daca499c8	Słupca	52°17'22''	17°52'21''	492080.17	423129.83	POL	wielkopolskie	słupecki	
fcbc38fd-f5d9-43c3-a384-888199c286c7	Słupsk	54°27'56''	17°02'14''	735283.17	372826.75	POL	pomorskie	m. Słupsk	
f1e9b24a-baf5-4c2e-99d5-19cef7bd783f	Sobótka	50°53'59''	16°44'40''	339390.55	341447.46	POL	dolnośląskie	wrocławski	
fce02cf9-9794-41ee-aa47-f9b6704b4808	Sochaczew	52°13'47''	20°14'17''	485566.89	584522.52	POL	mazowieckie	sochaczewski	
53b217bb-2c57-4d19-87e7-5c9f67f0d626	Sokołów Małopolski	50°13'51''	22°07'13''	267284.46	722461.97	POL	podkarpackie	rzeszowski	
17c0e23b-0b42-4d21-9f42-c3522eccdab5	Sokołów Podlaski	52°24'29''	22°15'00''	509636.47	720991.58	POL	mazowieckie	sokołowski	
0a3e9e8c-4111-4012-aec1-638f84c2d640	Sokółka	53°24'26''	23°30'14''	625247.21	799227.02	POL	podlaskie	sokólski	
0db56651-1472-4814-a341-6ca269e5b2d8	Solec Kujawski	53°04'51''	18°13'35''	579789.53	448199.32	POL	kujawsko-pomorskie	bydgoski	
fc765b49-ecc0-430a-ba05-9304e08da477	Sompolno	52°23'20''	18°30'10''	502665.83	466170.34	POL	wielkopolskie	koniński	
0551f55e-5321-4fa4-a7c6-511e124db943	Sopot	54°26'43''	18°33'39''	731343.45	471529.55	POL	pomorskie	m. Sopot	
9723f671-ebf4-4ccf-a346-4f53d4c6a609	Sosnowiec	50°16'44''	19°07'46''	267976.04	509220.36	POL	śląskie	m. Sosnowiec	
ff803968-384d-4c13-8dd7-9dea1bad74d1	Sośnicowice	50°16'20''	18°31'47''	267345.97	466495.77	POL	śląskie	gliwicki	
58a5b2a4-45e9-4146-800c-9b33ec5f0fcc	Stalowa Wola	50°34'07''	22°03'56''	304648.54	717009.48	POL	podkarpackie	stalowowolski	
769556aa-5053-421b-9f6e-4a5531f33e67	Starachowice	51°03'12''	21°04'13''	356095.5	645049.63	POL	świętokrzyskie	starachowicki	
b0ff9e85-4d44-458b-ac80-8fa9fd0c56e5	Stargard	53°20'21''	15°02'28''	615533.75	236543.45	POL	zachodniopomorskie	stargardzki	
7fc8a859-e99b-4b4a-a3e1-0a2834148a92	Starogard Gdański	53°58'05''	18°31'51''	678274.68	469232.14	POL	pomorskie	starogardzki	
c8c1e157-d236-43f2-8865-79797cb36ccc	Stary Sącz	49°33'51''	20°38'06''	189811.76	618186.89	POL	małopolskie	nowosądecki	
0da28757-b616-471f-a006-13d0123a2bd1	Staszów	50°33'51''	21°10'03''	301928.68	653452.81	POL	świętokrzyskie	staszowski	
3d5eb7f2-b14f-4685-bfe5-4326b2742144	Stawiski	53°22'46''	22°09'21''	617346.99	709834.15	POL	podlaskie	kolneński	
093aeaed-f47e-47f6-bc17-c2e30c42c17f	Stawiszyn	51°55'03''	18°06'42''	450523.64	438918.88	POL	wielkopolskie	kaliski	
529edf3e-2917-49b7-a7f4-6d5a54be23b5	Stąporków	51°08'17''	20°33'51''	364629.97	609402	POL	świętokrzyskie	konecki	
72ec6571-9722-4a93-90af-d4b017a96104	Stepnica	53°39'08''	14°37'42''	651931.63	211227.56	POL	zachodniopomorskie	goleniowski	
ed660e3c-8e5e-443d-ab8f-54343d6af87c	Stęszew	52°16'50''	16°42'12''	492996.33	343384.77	POL	wielkopolskie	poznański	
0f3f0a17-3dc2-488b-a4db-1a2d0813da99	Stoczek Łukowski	51°57'41''	21°58'10''	459195.36	703944.19	POL	lubelskie	łukowski	
8b3dddc6-9275-4494-ae47-05dacc17be59	Stopnica	50°26'23''	20°56'22''	287645.67	637675.2	POL	świętokrzyskie	buski	
57085ea5-a2ef-4338-b814-c1b5a8e41213	Stronie Śląskie	50°17'56''	16°52'25''	272345.94	348607.12	POL	dolnośląskie	kłodzki	
82e3fb49-86f2-4d6a-b78a-0735c7b56769	Strumień	49°55'02''	18°45'48''	227785.19	483017.69	POL	śląskie	cieszyński	
0e9ba502-f1bc-4a2e-8a8b-e304fbe7d5ca	Stryków	51°54'06''	19°36'17''	448537.37	541596.91	POL	łódzkie	zgierski	
14f0b288-6e7f-4d2a-9b13-a11006235aa9	Strzegom	50°57'37''	16°20'48''	347053.46	313724.15	POL	dolnośląskie	świdnicki	
d7d22bce-3cf4-468e-bb25-21fb1cad1c1d	Strzelce Krajeńskie	52°52'43''	15°31'58''	562642.15	266772.99	POL	lubuskie	strzelecko-drezdenecki	
6cba5e91-3ba4-4e14-baa8-d997d411e99a	Strzelce Opolskie	50°30'40''	18°18'02''	294005.3	450414.06	POL	opolskie	strzelecki	
611fd2ff-3d45-40b7-9214-4dadb6580027	Strzelin	50°46'51''	17°04'15''	325531.26	364040.31	POL	dolnośląskie	strzeliński	
da1f262a-3703-4112-907b-ee850d3542e3	Strzelno	52°37'41''	18°10'21''	529464.17	444007.83	POL	kujawsko-pomorskie	mogileński	
9e4e3150-1173-451e-b98e-b4c3e12ec47c	Strzyżów	49°52'13''	21°47'12''	226273.16	700175.27	POL	podkarpackie	strzyżowski	
98a66fb0-e11f-44e2-962b-499e97b41617	Sucha Beskidzka	49°44'25''	19°35'15''	208266.23	542317.97	POL	małopolskie	suski	
3d08edaa-a762-4855-aade-fcdd1952bfb5	Suchań	53°16'48''	15°19'03''	607969.34	254584.54	POL	zachodniopomorskie	stargardzki	
50c711d4-a335-4d2f-b6ba-fb055c7b63e4	Suchedniów	51°02'41''	20°50'11''	354703.55	628693	POL	świętokrzyskie	skarżyski	
2d881756-03b2-461f-8fd9-efc0d4ee546b	Suchowola	53°34'42''	23°06'23''	642668.09	771734.52	POL	podlaskie	sokólski	
c5d5681a-c022-4880-a52c-d51e658348bc	Sulechów	52°05'07''	15°37'23''	474179.87	268708.81	POL	lubuskie	zielonogórski	
a6e6495f-c6dd-4ae4-a9b3-984400f26e7d	Sulejów	51°21'15''	19°53'06''	387879.91	561599.53	POL	łódzkie	piotrkowski	
0795a871-4491-423d-ba63-b92886219f70	Sulejówek	52°14'35''	21°16'40''	488792.31	655459.92	POL	mazowieckie	miński	
835a6cb1-0d58-4976-8841-26c59c8a858e	Sulęcin	52°26'31''	15°06'52''	515558.97	236024.21	POL	lubuskie	sulęciński	
c9644690-425d-413e-821d-adf26b0b3e10	Sulmierzyce	51°36'22''	17°31'50''	416540.67	398278.87	POL	wielkopolskie	krotoszyński	
9ca8b7b5-6154-4a4a-9e7f-a0130991abb8	Sułkowice	49°50'28''	19°48'05''	219612.29	557613.23	POL	małopolskie	myślenicki	
05c20561-050b-42ea-95b1-533b7f47521a	Supraśl	53°12'19''	23°20'15''	602120.8	789543.62	POL	podlaskie	białostocki	
0c55e1cf-236c-4402-b797-5a7902fc3072	Suraż	52°57'00''	22°57'21''	572271.79	765646.47	POL	podlaskie	białostocki	
09875a11-7d32-46b3-a9d6-d221def4cd2b	Susz	53°43'06''	19°20'20''	650453.34	522353.07	POL	warmińsko-mazurskie	iławski	
f5fdedb7-085b-448e-a36c-ad5301d82a54	Suwałki	54°06'07''	22°55'37''	700194.04	756640.25	POL	podlaskie	m. Suwałki	
6cd27380-398a-404a-a4be-5300ec4d6eb4	Swarzędz	52°24'36''	17°04'39''	506645.24	369266.05	POL	wielkopolskie	poznański	
d5b019c1-970a-44d1-8a01-c8df2f490c06	Syców	51°18'34''	17°43'14''	383317.97	410847.97	POL	dolnośląskie	oleśnicki	
79b31104-6726-4f86-b93c-10a52f14cb60	Szadek	51°41'31''	18°58'32''	425046.1	498309.39	POL	łódzkie	zduńskowolski	
bc0a7a83-f11b-439d-900d-be09d5433d10	Szamocin	53°01'44''	17°07'18''	575371.04	374071.53	POL	wielkopolskie	chodzieski	
068ffe54-4ea0-4fc6-b39c-bd0379976c24	Szamotuły	52°36'42''	16°34'43''	530082.12	336109.97	POL	wielkopolskie	szamotulski	
69893cb1-67cc-4f52-a9f7-35d72192a28c	Szczawnica	49°25'31''	20°28'58''	174141.65	607495.76	POL	małopolskie	nowotarski	
ec14b855-5e4c-4248-afd4-bb4c9819f678	Szczawno-Zdrój	50°48'01''	16°15'03''	329538.58	306345.59	POL	dolnośląskie	wałbrzyski	
2c0630b6-30ff-4580-aa06-fcdf83010a70	Szczebrzeszyn	50°41'42''	22°58'42''	321773.23	780855.15	POL	lubelskie	zamojski	
0526689a-ac87-44a2-a3c0-3cb9e715cd96	Szczecin	53°25'55''	14°32'48''	627768.35	204306.87	POL	zachodniopomorskie	m. Szczecin	
f62dd686-72c1-4cda-887d-72b5cf225482	Szczecinek	53°42'10''	16°42'02''	651115.75	348259.44	POL	zachodniopomorskie	szczecinecki	
32db001f-5d9e-4374-9bec-a46f8cf2e648	Szczekociny	50°37'33''	19°49'05''	306853.57	557845.33	POL	śląskie	zawierciański	
86155037-ed85-467e-a261-affab7b6c067	Szczucin	50°18'33''	21°04'35''	273404.18	647800.92	POL	małopolskie	dąbrowski	
04be2be7-5730-4bce-804e-692c6b85a0c4	Szczuczyn	53°33'48''	22°17'06''	638179.48	717485.5	POL	podlaskie	grajewski	
a4a2fa1c-27a1-488a-af7d-3b9abffb58cb	Szczyrk	49°42'43''	19°01'09''	204943.78	501382.37	POL	śląskie	bielski	
64ff7d6c-96a3-4dc2-b2b7-c99fd58eb7e2	Szczytna	50°24'56''	16°26'38''	286273.19	318469.9	POL	dolnośląskie	kłodzki	
efa44a19-a34d-4377-a59e-15ff37d61c18	Szczytno	53°33'48''	20°59'43''	635001.45	632104.92	POL	warmińsko-mazurskie	szczycieński	
c799a748-701f-4e4f-a165-33e001953baa	Szepietowo	52°52'08''	22°32'43''	561814.5	738532.16	POL	podlaskie	wysokomazowiecki	
dcffe676-640f-4f62-aba8-9f2956d237c7	Szklarska Poręba	50°49'47''	15°31'08''	334986.33	254941.89	POL	dolnośląskie	jeleniogórski	
b5961b68-d9f2-41ea-bfb5-d5e54dad0ac6	Szlichtyngowa	51°42'43''	16°14'33''	430879.83	309553.67	POL	lubuskie	wschowski	
5d7b99ac-ebee-43fb-aa47-923822be017e	Szprotawa	51°33'57''	15°32'17''	416718.16	260146.94	POL	lubuskie	żagański	
35289cc2-85f3-4278-957d-883004f82bca	Sztum	53°55'09''	19°01'58''	672735.59	502152.08	POL	pomorskie	sztumski	
bafc05d8-2883-4f5c-bf5b-8d692b61d662	Szubin	53°00'27''	17°44'01''	572089.74	415046.14	POL	kujawsko-pomorskie	nakielski	
69d41c70-1099-4f4d-8450-20b4989ad9ee	Szydłowiec	51°13'27''	20°51'26''	374681.27	629654.8	POL	mazowieckie	szydłowiecki	
68154831-d832-495c-964f-5dc94b5d9ed4	Szydłów	50°35'27''	21°00'24''	304565.75	641983.76	POL	świętokrzyskie	staszowski	
97075da6-fa06-438f-afac-a679e91af8ab	Ścinawa	51°24'46''	16°25'34''	397161.11	321069.43	POL	dolnośląskie	lubiński	
143069d6-f77c-490b-9458-f597ce4f37fc	Ślesin	52°22'14''	18°18'23''	500725.56	452791.18	POL	wielkopolskie	koniński	
2ddc1cca-0a43-48d7-8e29-a3d095a91457	Śmigiel	52°00'44''	16°31'31''	463545.34	330214.28	POL	wielkopolskie	kościański	
05d2f42f-00b2-4e3c-9cfc-6565b9db369f	Śrem	52°05'43''	17°01'14''	471761.51	364444.88	POL	wielkopolskie	śremski	
1c4da4a2-7742-426b-9c92-c73464210fb3	Środa Śląska	51°09'48''	16°35'52''	369023.9	332082.45	POL	dolnośląskie	średzki	
66aad11a-cff4-40a3-8e4f-4f784510ae59	Środa Wielkopolska	52°13'44''	17°16'30''	486173.99	382230.68	POL	wielkopolskie	średzki	
fc436300-c243-455d-88fc-e82a2cab13f7	Świątniki Górne	49°56'03''	19°57'13''	230100.28	568416.17	POL	małopolskie	krakowski	
03d64a44-f520-4905-8680-b26219f8ee6e	Świdnica	50°50'34''	16°29'14''	333646.3	323146.74	POL	dolnośląskie	świdnicki	
5256250c-3ee5-476d-88e4-be711f8b56c3	Świdnik	51°13'12''	22°42'01''	379108.58	758307.34	POL	lubelskie	świdnicki	
c3fa20c8-f5cd-45da-94ee-26c2b19ce7bc	Świdwin	53°46'29''	15°46'27''	661497.11	287505.72	POL	zachodniopomorskie	świdwiński	
1c6607ad-21df-46f3-998a-31e5dfd09d26	Świebodzice	50°51'35''	16°19'12''	335969.47	311441.12	POL	dolnośląskie	świdnicki	
00e9aece-1ee4-45ec-98ea-24a2fa9e03b3	Świebodzin	52°14'53''	15°32'10''	492528.87	263620.66	POL	lubuskie	świebodziński	
897e24ad-a3a6-4d81-941d-5f819208de39	Świecie	53°24'34''	18°26'50''	616178.48	463266.7	POL	kujawsko-pomorskie	świecki	
69bcab74-b566-40b1-b2c1-4f6c30b644a6	Świeradów-Zdrój	50°54'33''	15°19'55''	344448.61	242228.47	POL	dolnośląskie	lubański	
748585e7-a0a9-4674-89d4-cc74a2997e84	Świerzawa	51°00'52''	15°53'36''	354336.36	282157.42	POL	dolnośląskie	złotoryjski	
36864538-6d89-44c1-953d-20e06071f166	Świętochłowice	50°17'31''	18°54'54''	269422.7	493947.08	POL	śląskie	m. Świętochłowice	
01840577-a3e7-4031-b949-08dabca4de0a	Świnoujście	53°54'28''	14°14'51''	681935.04	187990.95	POL	zachodniopomorskie	m. Świnoujście	
9525c7f3-9c8c-4dd9-8e96-9bd2a73fbf55	Tarczyn	51°58'48''	20°50'02''	458682.76	625915.81	POL	mazowieckie	piaseczyński	
bf9621e1-d9ca-4054-b30a-04342663bfd5	Tarnobrzeg	50°34'17''	21°40'15''	303883.89	689067.7	POL	podkarpackie	m. Tarnobrzeg	
09ed820e-8f23-4391-99b7-79d223b20d27	Tarnogród	50°21'39''	22°44'31''	283756.92	766053.54	POL	lubelskie	biłgorajski	
44bf4f09-8f6a-42bf-8306-755c887e2367	Tarnowskie Góry	50°26'44''	18°51'21''	286516.15	489771.03	POL	śląskie	tarnogórski	
9009071c-5022-4566-bbe9-9ab806c5298f	Tarnów	50°00'44''	20°59'07''	240211.3	642202.26	POL	małopolskie	m. Tarnów	
9eea3f13-5bec-42a5-adb7-ff05572eb7b0	Tczew	54°05'17''	18°47'58''	691538.71	486885.38	POL	pomorskie	tczewski	
0fac3d0e-d49a-41e3-adad-9b59393c8692	Terespol	52°04'34''	23°36'58''	477819.94	816173.62	POL	lubelskie	bialski	
75630a7d-dc3b-4ea9-8f31-f50d63a4f451	Tłuszcz	52°25'48''	21°26'07''	509896.2	665508.67	POL	mazowieckie	wołomiński	
4a7c9716-6722-4baf-91bf-42fc78757c45	Tolkmicko	54°19'13''	19°31'38''	717472.5	534278.42	POL	warmińsko-mazurskie	elbląski	
85b36e88-ccb0-4ba2-9cac-0cf677490b4a	Tomaszów Lubelski	50°27'04''	23°24'57''	296429.64	813351.81	POL	lubelskie	tomaszowski	
47dd95a8-e763-44a3-9b4d-5906c55d36d1	Tomaszów Mazowiecki	51°31'49''	20°00'35''	407577.9	570014.81	POL	łódzkie	tomaszowski	
5825dbc8-2cb5-4bb5-b567-2ce47d7c320d	Toruń	53°00'47''	18°36'20''	572021.35	473552.05	POL	kujawsko-pomorskie	m. Toruń	
bd7ec8ea-1478-439b-b792-9e471c31f5af	Torzym	52°18'50''	15°04'21''	501483.33	232396.71	POL	lubuskie	sulęciński	
ed140ccf-37fd-4834-bf64-ac878d1be4a4	Toszek	50°27'17''	18°31'12''	287626.37	465928.95	POL	śląskie	gliwicki	
49b5f20f-ae8c-4851-a932-8a13817ce745	Trzcianka	53°02'24''	16°27'38''	577975.12	329794.84	POL	wielkopolskie	czarnkowsko-trzcianecki	
7de845dd-2b35-4243-866a-de559b5f0ead	Trzciel	52°21'55''	15°52'31''	504529.99	287333.63	POL	lubuskie	międzyrzecki	
09307e73-d96d-4acb-89c4-7c4fb8f4afd0	Trzcińsko-Zdrój	52°57'60''	14°36'23''	575829.84	205087.94	POL	zachodniopomorskie	gryfiński	
346983e0-788b-4757-a677-273ff37b89f7	Trzebiatów	54°03'48''	15°15'58''	695204.15	255736.61	POL	zachodniopomorskie	gryficki	
bd86a6ae-1137-4f7b-88f6-26017a144a46	Trzebinia	50°09'30''	19°28'22''	254685.25	533768.53	POL	małopolskie	chrzanowski	
e758193e-a92f-401c-b298-7cbeb1900416	Trzebnica	51°18'30''	17°03'43''	384195.26	364956.06	POL	dolnośląskie	trzebnicki	
23c2c8bf-6e1d-4d4e-a6a9-f0c11d45cb0e	Trzemeszno	52°33'38''	17°49'19''	522304.33	420166.14	POL	wielkopolskie	gnieźnieński	
2be3ad2b-b1de-4c3e-a9b7-9c855d411b5d	Tuchola	53°35'18''	17°51'42''	636542.34	424665.25	POL	kujawsko-pomorskie	tucholski	
2af68ccc-5ae7-451b-a4d4-01e7329e0476	Tuchów	49°53'42''	21°03'16''	227320.81	647506.82	POL	małopolskie	tarnowski	
67f101b9-4f08-47d9-8e05-6125604880ae	Tuczno	53°11'40''	16°09'14''	595912.65	309926.99	POL	zachodniopomorskie	wałecki	
82900b22-202a-4639-b339-73819df4ca25	Tuliszków	52°04'39''	18°17'37''	468152.09	451603.82	POL	wielkopolskie	turecki	
8c2a1e24-a577-4f8a-82ad-7a83c99bdd9e	Tułowice	50°35'37''	17°39'16''	303818.61	404785.37	POL	opolskie	opolski	
61c39c64-9783-4156-abcc-8086ed503755	Turek	52°00'56''	18°30'06''	461159.4	465809.61	POL	wielkopolskie	turecki	
22a9d77e-59fd-443a-92d0-c7373f98b55e	Tuszyn	51°36'14''	19°32'38''	415407.11	537655.11	POL	łódzkie	łódzki wschodni	
780c853b-c5d9-468c-8129-873e89583a94	Twardogóra	51°21'56''	17°28'04''	389868.51	393369.34	POL	dolnośląskie	oleśnicki	
a28d97aa-1e27-441a-84ad-7fc9da43bf13	Tychowo	53°55'47''	16°15'33''	677373.71	320106.83	POL	zachodniopomorskie	białogardzki	
afd88429-c58a-49b7-9ff2-ebb1e689ad7f	Tychy	50°07'42''	18°58'54''	251225.18	498686.32	POL	śląskie	m. Tychy	
3e61f73b-e08c-4b5b-8427-fec66b59a439	Tyczyn	49°57'45''	22°02'03''	237211.83	717536.69	POL	podkarpackie	rzeszowski	
6cf3e29d-610b-4510-8126-435fadca1b6e	Tykocin	53°12'23''	22°46'23''	600106.09	751875	POL	podlaskie	białostocki	
865fed51-332b-42a0-b735-88face68a2e2	Tyszowce	50°37'02''	23°42'22''	316138.75	832761.15	POL	lubelskie	tomaszowski	
dcd08d03-5e74-4e42-bddf-68758791ec39	Ujazd	50°23'22''	18°20'60''	280457.82	453805.81	POL	opolskie	strzelecki	
976aef65-c4a2-4462-ab17-9dc10d6c2708	Ujście	53°03'11''	16°43'57''	578803.84	348079.06	POL	wielkopolskie	pilski	
f7546d19-70cc-4e5a-82ed-be7575d2fee4	Ulanów	50°29'25''	22°15'51''	296554.82	731452.42	POL	podkarpackie	niżański	
6f207e49-d9cd-4f87-b7c0-8b08396c608f	Uniejów	51°58'30''	18°47'39''	456564.44	485862.31	POL	łódzkie	poddębicki	
b144f4e0-fff3-40dd-9a51-339cc7b35777	Urzędów	50°59'32''	22°08'35''	351960.87	720487.27	POL	lubelskie	kraśnicki	
0ab616a4-c70f-423a-815f-e50b4acfa85e	Ustka	54°35'05''	16°51'25''	748877.92	361560.24	POL	pomorskie	słupski	
b4c4d41c-2cc1-4c7c-bd3d-4d24f081a12f	Ustroń	49°43'13''	18°48'43''	205897.69	486451.84	POL	śląskie	cieszyński	
bdc30f1b-ffcd-4a93-81f9-4b728b2d957f	Ustrzyki Dolne	49°25'48''	22°35'13''	179796.26	759982.4	POL	podkarpackie	bieszczadzki	
804529b1-273e-488e-8689-38422d248ff3	Wadowice	49°52'59''	19°29'35''	224091.8	535401.86	POL	małopolskie	wadowicki	
00bfcd1d-ff7b-44ad-92d1-f9fd2f1c4f56	Wałbrzych	50°46'02''	16°16'58''	325769.15	308445.38	POL	dolnośląskie	m. Wałbrzych	
6a9000c0-dd00-4c68-a42a-8e3bb82f6e7a	Wałcz	53°16'23''	16°28'03''	603860.62	331174.3	POL	zachodniopomorskie	wałecki	
38196d28-3694-4577-8821-b231e3b1c83d	Warka	51°47'04''	21°11'20''	437607.86	650935.19	POL	mazowieckie	grójecki	
30bfd0b3-ae9c-4397-afd5-f0f8b230e371	Warszawa	52°13'55''	21°00'24''	486996.26	636997.55	POL	mazowieckie	m. St. Warszawa	
ddbbdc50-213a-4a3c-b05f-d5ef5de54879	Warta	51°42'25''	18°37'28''	426792.06	474057.72	POL	łódzkie	sieradzki	
b3825297-951d-4653-8425-38209c20ffee	Wasilków	53°11'56''	23°12'26''	600890.83	780893.43	POL	podlaskie	białostocki	
43be18bd-31f8-4e96-a503-704e71b9c0d9	Wąbrzeźno	53°16'48''	18°56'50''	601650.94	496474.58	POL	kujawsko-pomorskie	wąbrzeski	
95bc8f20-0c4a-4c34-b971-89d418585fb5	Wąchock	51°04'26''	21°00'37''	358279.74	640794.39	POL	świętokrzyskie	starachowicki	
d22d1894-ed42-4d3d-b0a3-494285f45d40	Wągrowiec	52°48'24''	17°12'02''	550538.54	378742.07	POL	wielkopolskie	wągrowiecki	
79ab8962-b9a8-46bf-8cf2-f0a9c41881df	Wąsosz	51°33'53''	16°41'37''	413424.21	340185.13	POL	dolnośląskie	górowski	
05898388-c202-475c-a07d-c882046919ca	Wejherowo	54°36'06''	18°14'18''	748917.4	450811.05	POL	pomorskie	wejherowski	
b9e64798-0979-44d2-90ec-4367d90d8c9f	Węgliniec	51°17'10''	15°13'24''	386707.29	236742.19	POL	dolnośląskie	zgorzelecki	
56e6b975-d2b4-4dad-817c-87eba9b642e6	Węgorzewo	54°12'51''	21°44'27''	709016.63	678666.75	POL	warmińsko-mazurskie	węgorzewski	
11603caa-7923-4898-ab78-1ab9cac8aec3	Węgorzyno	53°32'27''	15°33'34''	636175.15	272107.53	POL	zachodniopomorskie	łobeski	
f538ded2-e8e4-461c-99a9-b8e090410e3c	Węgrów	52°23'56''	22°01'02''	507947.27	705210.65	POL	mazowieckie	węgrowski	
44603ca6-059c-4381-b6b9-48db2e8f442b	Wiązów	50°48'50''	17°12'04''	328968.41	373311.96	POL	dolnośląskie	strzeliński	
e70c77fa-5175-4e33-91d9-268b79bacabb	Wielbark	53°23'54''	20°56'49''	616571.51	629408.84	POL	warmińsko-mazurskie	szczycieński	
6d96bd7b-9609-47d1-9054-185298b3d063	Wieleń	52°53'19''	16°10'04''	561871.1	309523.64	POL	wielkopolskie	czarnkowsko-trzcianecki	
2d471b40-cc9b-4c9d-986a-a06db50259b0	Wielichowo	52°07'03''	16°20'59''	475682.48	318602.08	POL	wielkopolskie	grodziski	
538dc392-d9b4-40cd-951c-7e3d79e9903e	Wieliczka	49°59'05''	20°03'44''	235803.7	576119.67	POL	małopolskie	wielicki	
b9bf585c-29bd-48de-88aa-fc1bb3ff28ee	Wieluń	51°13'15''	18°34'14''	372780.95	470023.19	POL	łódzkie	wieluński	
528fb55f-5d0e-4592-8a06-b32e847f03a4	Wieruszów	51°17'42''	18°09'18''	381264.31	441101.62	POL	łódzkie	wieruszowski	
869af197-6bd5-41eb-98d5-6dd826006cee	Więcbork	53°21'17''	17°29'23''	611020.24	399504.9	POL	kujawsko-pomorskie	sępoleński	
1029921f-9541-4eab-b585-7ab81ebd7f9d	Wilamowice	49°54'59''	19°09'10''	227678.66	510961.84	POL	śląskie	bielski	
ff986658-0acc-465d-adb3-7aadce40b470	Wisła	49°39'15''	18°51'39''	198539.1	489957.99	POL	śląskie	cieszyński	
d36d6160-1b72-46ac-b6a3-71629b08d5a0	Wiślica	50°20'56''	20°40'27''	277077.41	619071.39	POL	świętokrzyskie	buski	
d8bfb332-d76c-4e8a-be2b-d4523290065b	Witkowo	52°26'24''	17°46'22''	508949.34	416601.72	POL	wielkopolskie	gnieźnieński	
ed903a75-2667-454f-ac8f-6e93d34ccf23	Witnica	52°40'26''	14°53'46''	542140.25	222664.27	POL	lubuskie	gorzowski	
2fe80432-7fe9-4f76-aceb-e1a33542070f	Wleń	51°01'01''	15°40'27''	355268.69	266812.91	POL	dolnośląskie	lwówecki	
15948840-627c-4467-ad37-580ccd32c314	Władysławowo	54°47'25''	18°24'32''	769777.63	461994.87	POL	pomorskie	pucki	
c81f8fdb-1409-4bdf-a2bf-0426e4f35e3f	Włocławek	52°39'26''	19°03'48''	532390.66	504280.55	POL	kujawsko-pomorskie	m. Włocławek	
934b4ac1-851c-4bd5-98e9-eeef32fd3bea	Włodawa	51°32'40''	23°33'14''	418482.21	815627.99	POL	lubelskie	włodawski	
320b8f4f-056e-466a-a874-9a262f9a711e	Włoszczowa	50°51'06''	19°58'09''	332072.99	568203.42	POL	świętokrzyskie	włoszczowski	
c3573519-9ce4-4411-aeb2-856081de9232	Wodzisław Śląski	50°00'10''	18°27'47''	237415.29	461532.62	POL	śląskie	wodzisławski	
aac65985-c6db-42b6-83ec-711f361bc3ab	Wojcieszów	50°57'03''	15°55'20''	347165.52	283894	POL	dolnośląskie	złotoryjski	
c779c683-82a6-486d-a726-b60e209c9aa1	Wojkowice	50°21'46''	19°02'41''	277305.05	503170.57	POL	śląskie	będziński	
69841993-430a-42fc-b70e-27ddf7e0afb3	Wojnicz	49°57'28''	20°50'15''	233893.17	631760.12	POL	małopolskie	tarnowski	
103c5d52-6974-4cc1-a904-5f49dfa3df0d	Wolbórz	51°30'18''	19°49'48''	404610.8	557588.44	POL	łódzkie	piotrkowski	
2a291cac-9a23-4ccd-b50b-0e9edc8425e5	Wolbrom	50°23'07''	19°45'36''	280070.01	554014.02	POL	małopolskie	olkuski	
18dbba66-491e-41ea-a29b-c979ab4c5cf9	Wolin	53°50'29''	14°36'48''	673020.95	211539.12	POL	zachodniopomorskie	kamieński	
b697ad43-75e6-43f9-81a6-fe1b3a248b27	Wolsztyn	52°06'52''	16°06'60''	475967.85	302641.22	POL	wielkopolskie	wolsztyński	
28d18c60-ab6d-41d2-9301-2ddb9c99738e	Wołczyn	51°01'05''	18°03'00''	350575.33	433393.3	POL	opolskie	kluczborski	
447def37-902e-4512-8d77-2af20ceb1a79	Wołomin	52°20'42''	21°14'45''	500056.07	652934.5	POL	mazowieckie	wołomiński	
684a5879-ce76-45d7-b87d-53401c43392d	Wołów	51°20'11''	16°38'46''	388171.52	336077.9	POL	dolnośląskie	wołowski	
6aea087b-5617-45e3-a882-9f2e82af6426	Woźniki	50°35'13''	19°03'36''	302213.06	504246.17	POL	śląskie	lubliniecki	
33800279-097a-4f5d-9578-4c30e5f9b64e	Wrocław	51°06'36''	17°01'55''	362197.28	362278.41	POL	dolnośląskie	m. Wrocław	
ca9444aa-9e31-4899-abbf-bfe99097b8cf	Wronki	52°42'29''	16°22'43''	541279.9	322958.66	POL	wielkopolskie	szamotulski	
a889254f-9c1f-4542-af56-f2d1ced55088	Września	52°19'33''	17°33'55''	496506.88	402259.25	POL	wielkopolskie	wrzesiński	
ce878408-af64-49d9-9f5b-b7abba2e972d	Wschowa	51°48'15''	16°19'00''	440927.59	315065.09	POL	lubuskie	wschowski	
e2ec82e1-9d15-46f6-9d32-ed8c744ced94	Wyrzysk	53°09'12''	17°16'01''	588953.08	384151.01	POL	wielkopolskie	pilski	
64de82a3-fcc9-49b7-928d-bf3f36494df8	Wysoka	53°10'54''	17°04'47''	592438.59	371714.17	POL	wielkopolskie	pilski	
92524813-279d-493f-a724-57667acf7ad5	Wysokie Mazowieckie	52°55'12''	22°30'49''	567390.74	736124.11	POL	podlaskie	wysokomazowiecki	
270c496e-a2bd-440a-ae7b-a02b88041913	Wyszków	52°35'45''	21°27'07''	528394.73	666013.52	POL	mazowieckie	wyszkowski	
6dff8347-d092-47a1-82c4-b7641c503ee9	Wyszogród	52°23'20''	20°11'29''	503218.51	581053.13	POL	mazowieckie	płocki	
17fa02ae-e75c-48fb-9321-131e11c221dd	Wyśmierzyce	51°37'31''	20°49'04''	419203.79	625796.24	POL	mazowieckie	białobrzeski	
51e5ffc7-4083-4d6c-93c8-6a1f3d8bc4f4	Zabłudów	53°00'54''	23°20'02''	580962.24	790584.28	POL	podlaskie	białostocki	
8d797815-ad59-41ec-bd82-1ce3bd2790a8	Zabrze	50°18'00''	18°47'20''	270335.98	484969.16	POL	śląskie	m. Zabrze	
a860f569-2d59-465c-9ec9-abfcf1ad8b89	Zagórów	52°10'06''	17°53'43''	478599.45	424470.06	POL	wielkopolskie	słupecki	
cf337c7c-8e94-4ba2-8368-88fc707df096	Zagórz	49°30'45''	22°15'54''	187899.71	736269.38	POL	podkarpackie	sanocki	
aa68b0ad-3c04-4684-ae1d-69fbad9e25da	Zakliczyn	49°51'22''	20°48'35''	222545.39	630041.51	POL	małopolskie	tarnowski	
78f03537-5b1b-467a-92a5-99eb31f4a68a	Zaklików	50°45'21''	22°06'06''	325576.9	718701.58	POL	podkarpackie	stalowowolski	
365663dd-0615-4cc4-9f20-5b75fa438cb0	Zakopane	49°17'49''	19°56'60''	159261.73	569050.19	POL	małopolskie	tatrzański	
f75ba7bf-1830-4c45-973e-354f4757eb93	Zakroczym	52°25'60''	20°36'42''	508714.33	609533.71	POL	mazowieckie	nowodworski	
a9b35bf6-67cd-4314-84a1-3d48467af92e	Zalewo	53°50'42''	19°36'21''	664659.14	539841.8	POL	warmińsko-mazurskie	iławski	
bbc33428-65e0-449d-ac98-bd5d8bd66529	Zambrów	52°58'53''	22°14'40''	573362.58	717732.04	POL	podlaskie	zambrowski	
a2b93f1e-d841-4cea-86fa-ce82a76fe9cf	Zamość	50°42'58''	23°15'17''	325202.03	800221.89	POL	lubelskie	m. Zamość	
4ab0a5b2-9870-4259-b777-5b0b616db6b1	Zator	49°59'46''	19°26'13''	236627.64	531307.61	POL	małopolskie	oświęcimski	
4dd31c3f-8906-45a8-a9f0-cf1df89dfa30	Zawadzkie	50°36'22''	18°28'57''	304458.89	463390.51	POL	opolskie	strzelecki	
9acc98d0-eac1-400c-adcd-6aff7dd4088a	Zawichost	50°48'22''	21°51'34''	330465.1	701413.37	POL	świętokrzyskie	sandomierski	
431d059e-dc31-49f6-9126-acae18c75a32	Zawidów	51°01'27''	15°03'49''	358179.87	224049.69	POL	dolnośląskie	zgorzelecki	
6aa220c1-0319-4b36-b65e-5169a624ed8e	Zawiercie	50°29'16''	19°25'33''	291274.4	530199.23	POL	śląskie	zawierciański	
4d108d85-6fd2-45e9-9c53-1dd52ee65640	Ząbki	52°17'27''	21°06'45''	493744.78	644032.46	POL	mazowieckie	wołomiński	
d6e3699e-685e-4ab2-bb04-87df09479155	Ząbkowice Śląskie	50°35'20''	16°48'46''	304705.02	345219.47	POL	dolnośląskie	ząbkowicki	
e22515ff-cb7a-44b4-832b-419a8d8a3725	Zbąszynek	52°14'46''	15°48'57''	491457.41	282704.51	POL	lubuskie	świebodziński	
87f92558-b3fd-4797-b6c6-9e22a46a98d1	Zbąszyń	52°15'12''	15°55'08''	491935.36	289761.09	POL	wielkopolskie	nowotomyski	
15b83a3b-0171-46e8-8ec7-ea5674111acb	Zduny	51°38'43''	17°22'32''	421107.32	387647.85	POL	wielkopolskie	krotoszyński	
eeff82fb-f2c3-4125-8c30-06dfd8dce8cb	Zduńska Wola	51°36'07''	18°56'03''	415043.1	495433.05	POL	łódzkie	zduńskowolski	
53a25972-afd8-4665-9284-d8424ca35068	Zdzieszowice	50°25'28''	18°07'30''	284500.51	437863.35	POL	opolskie	krapkowicki	
41fd46e1-d2df-4f5d-adc9-e2bc44ac7ea2	Zelów	51°27'52''	19°13'12''	399771.39	515279.26	POL	łódzkie	bełchatowski	
7b1541a0-6bf3-4cf7-8598-ecd1d4a3bee4	Zgierz	51°51'22''	19°24'22''	443403.87	527967.74	POL	łódzkie	zgierski	
1bbcc172-707e-431b-9d97-36d72fb263be	Zgorzelec	51°08'59''	15°00'24''	372356.36	220824.11	POL	dolnośląskie	zgorzelecki	
9976983e-5efb-46de-a70d-28bf916665ae	Zielona Góra	51°56'21''	15°30'14''	458318.66	259767.96	POL	lubuskie	m. Zielona Góra	
f64ee962-f6a6-4a66-b2b2-8fdfe72a97a4	Zielonka	52°18'30''	21°09'30''	495771.89	647101.68	POL	mazowieckie	wołomiński	
a91fea05-c315-4579-9d37-23cf72c81ac1	Ziębice	50°36'01''	17°02'28''	305524.49	361414.72	POL	dolnośląskie	ząbkowicki	
37bcc47b-702d-441a-a8ad-cf42ad2635ec	Złocieniec	53°31'50''	16°00'42''	633665.61	302006.5	POL	zachodniopomorskie	drawski	
1f23f6fd-ba3f-472c-b899-a4fd821afbdd	Złoczew	51°25'05''	18°36'21''	394680.02	472599.05	POL	łódzkie	sieradzki	
c648536e-1d67-4c98-8c44-e18081c2785b	Złotoryja	51°07'29''	15°54'57''	366513.86	284249.8	POL	dolnośląskie	złotoryjski	
f82d87cc-cca1-460a-865c-72cacf50715f	Złotów	53°21'47''	17°02'20''	612678.33	369535.66	POL	wielkopolskie	złotowski	
1d5227f1-79c5-4086-a481-4bce4c049300	Złoty Stok	50°26'35''	16°52'25''	288375.08	349057.67	POL	dolnośląskie	ząbkowicki	
884c4fb1-2f94-42d9-8c81-2b150f7a2bb9	Zwierzyniec	50°36'50''	22°58'17''	312742.24	780858.02	POL	lubelskie	zamojski	
6dcc9e8d-ce47-4746-a370-cc815ac237da	Zwoleń	51°21'23''	21°35'03''	390924.32	679874.6	POL	mazowieckie	zwoleński	
00c05515-ecf8-4dd7-b5f9-654855825e3a	Żabno	50°08'00''	20°53'10''	253491.52	634756.49	POL	małopolskie	tarnowski	
1b6d6a14-4e15-417f-92f7-4962e5a4dff1	Żagań	51°36'56''	15°18'48''	422990.33	244858.33	POL	lubuskie	żagański	
9dfd2c97-f479-45f5-a184-6cadf09a286a	Żarki	50°37'33''	19°21'57''	306598.18	525868.49	POL	śląskie	myszkowski	
e82ab0d5-96b8-49d5-b7ed-93772841e09a	Żarów	50°56'33''	16°29'36''	344729.7	323961.27	POL	dolnośląskie	świdnicki	
896d3531-91a4-4c70-b478-0d5e54a13f1c	Żary	51°38'09''	15°08'18''	425870.06	232866.09	POL	lubuskie	żarski	
5d536eac-3994-47c5-8ed1-eede1c9cd36a	Żelechów	51°48'35''	21°53'44''	442106.33	699551.83	POL	mazowieckie	garwoliński	
2029b66e-0f70-47c6-99d7-a6f843f6bf09	Żerków	52°04'06''	17°33'48''	467886.75	401554.1	POL	wielkopolskie	jarociński	
be73ccef-6922-43bb-9038-b8bd046d8852	Żmigród	51°28'16''	16°54'28''	402567.46	354727.4	POL	dolnośląskie	trzebnicki	
c6d2cfc7-5c82-4de9-93a5-6c6f4f1067f7	Żnin	52°50'59''	17°43'15''	554551.41	413884.62	POL	kujawsko-pomorskie	żniński	
2baf89ba-2fd8-476c-9bf5-c62ea1e41d8e	Żory	50°02'43''	18°41'39''	242045.93	478109	POL	śląskie	m. Żory	
cbee55b6-5d0b-407d-be5b-0d2ecd8278f5	Żukowo	54°20'45''	18°21'52''	720394.17	458693.93	POL	pomorskie	kartuski	
5e12c694-5d5f-45e1-aa1c-1a5d7bb06466	Żuromin	53°03'58''	19°54'35''	578255.02	560935.88	POL	mazowieckie	żuromiński	
f5f2a397-e49a-44a7-8a87-feafed3176ac	Żychlin	52°14'38''	19°37'35''	486616.29	542758.37	POL	łódzkie	kutnowski	
bcb0334e-9ea3-48d1-8875-be66ed8fa0dd	Żyrardów	52°03'25''	20°26'54''	466617.82	599274.6	POL	mazowieckie	żyrardowski	
07ba2835-d5c2-4166-bb0b-ebd3cacb5301	Żywiec	49°40'41''	19°11'17''	201201.91	513563.1	POL	śląskie	żywiecki	
12e4198c-b904-40a1-8716-71b78ab64ec1	Brok	52°42'00''	21°51'34''	540985.82	693146.77	POL	mazowieckie	ostrowski	
229536c5-3efd-4c53-a4b8-93b156e63d44	Warszawa	52°14'57''	20°54'31''	488740.73	630252.71	POL	mazowieckie	m. St. Warszawa	Bemowo
f6064e54-454a-4948-9b3d-7b550e471113	Warszawa	52°19'07''	21°01'56''	496680.24	638471.64	POL	mazowieckie	m. St. Warszawa	Białołęka
4fd4409b-7ec5-4cff-b102-bcd020c24190	Warszawa	52°16'39''	20°56'50''	491950.32	632803.44	POL	mazowieckie	m. St. Warszawa	Bielany
dd329197-87bd-4364-97a6-91406c6eca7a	Warszawa	52°12'02''	21°01'28''	483540.32	638308.62	POL	mazowieckie	m. St. Warszawa	Mokotów
4647a7ad-e402-4bc0-87ef-f4d2fb13d77a	Warszawa	52°13'07''	20°59'05''	485485.09	635539.61	POL	mazowieckie	m. St. Warszawa	Ochota
387959f7-0a61-442c-b8e8-64fc0e6f76f3	Warszawa	52°14'38''	21°05'00''	488472.33	642198.81	POL	mazowieckie	m. St. Warszawa	Praga-Południe
e43686b5-ed72-4322-ba75-3d611e2360d9	Warszawa	52°15'32''	21°02'19''	490040.52	639100.52	POL	mazowieckie	m. St. Warszawa	Praga-Północ
66ef598a-242c-4c44-8ceb-30a5d549cdae	Warszawa	52°15'43''	21°09'44''	490637.01	647516.74	POL	mazowieckie	m. St. Warszawa	Rembertów
4cc5037d-6c45-4e28-91b8-e26208cc8e4d	Warszawa	52°13'40''	21°00'38''	486541.87	637285.2	POL	mazowieckie	m. St. Warszawa	Śródmieście
7a5cbbb5-82d2-4c69-b437-a00a8f71765e	Warszawa	52°16'40''	21°03'45''	492198.88	640663.84	POL	mazowieckie	m. St. Warszawa	Targówek
6f06860f-aa6a-42bd-83e2-e2f6ebb2945e	Warszawa	52°11'38''	20°53'10''	482544.22	628877.95	POL	mazowieckie	m. St. Warszawa	Ursus
3e9ae5d8-06e4-4708-865c-a6c6b824458a	Warszawa	52°09'02''	21°02'24''	478023.88	639529.23	POL	mazowieckie	m. St. Warszawa	Ursynów
96fb2f9d-8cf1-48a6-b098-cbdd01da69b4	Warszawa	52°13'10''	21°08'08''	485854.18	645833.27	POL	mazowieckie	m. St. Warszawa	Wawer
468c7efc-e09d-435e-898c-0c3558b2ddf4	Warszawa	52°15'07''	21°13'04''	489650.74	651336.57	POL	mazowieckie	m. St. Warszawa	Wesoła
f7fd2de8-cad3-46c7-a145-9e4e046cffba	Warszawa	52°10'27''	21°04'49''	480714.54	642206.89	POL	mazowieckie	m. St. Warszawa	Wilanów
9025f8ef-c94a-4392-bf83-fb5a79dc2017	Warszawa	52°12'21''	20°54'36''	483902.98	630484.46	POL	mazowieckie	m. St. Warszawa	Włochy
ab065f38-bc52-4e8c-8448-d45d3f77c502	Warszawa	52°14'14''	20°57'38''	487496.85	633833.92	POL	mazowieckie	m. St. Warszawa	Wola
28fb54d8-c436-4263-8c80-aa74a3153350	Warszawa	52°16'10''	20°59'15''	491129.35	635574.75	POL	mazowieckie	m. St. Warszawa	Żoliborz
